{
  "type": "FeatureCollection",
  "generator": "overpass-ide",
  "copyright": "The data included in this document is from www.openstreetmap.org. The data is made available under ODbL.",
  "timestamp": "2020-12-16T03:30:02Z",
  "features": [
    {
      "type": "Feature",
      "properties": {
        "@id": "node/25248731",
        "addr:city": "Makati",
        "addr:floor": "1",
        "addr:housename": "San Antonio Plaza",
        "addr:postcode": "1220",
        "addr:street": "McKinley Road",
        "addr:street:corner": "Narra Avenue",
        "amenity": "cafe",
        "name": "Starbucks"
      },
      "geometry": {
        "type": "Point",
        "coordinates": [
          121.0349809,
          14.5472631
        ]
      },
      "id": "node/25248731"
    },
    {
      "type": "Feature",
      "properties": {
        "@id": "node/25388531",
        "amenity": "cafe",
        "name": "Madonna's Cuisine"
      },
      "geometry": {
        "type": "Point",
        "coordinates": [
          120.994311,
          14.5384516
        ]
      },
      "id": "node/25388531"
    },
    {
      "type": "Feature",
      "properties": {
        "@id": "node/251456685",
        "addr:city": "Taguig",
        "addr:housename": "B:3, Bonifacio High Street",
        "addr:street": "7th Avenue",
        "amenity": "cafe",
        "branch": "Bonifacio High Street - Block 3",
        "name": "Starbucks",
        "short_name": "Starbucks"
      },
      "geometry": {
        "type": "Point",
        "coordinates": [
          121.0499456,
          14.5511801
        ]
      },
      "id": "node/251456685"
    },
    {
      "type": "Feature",
      "properties": {
        "@id": "node/251456689",
        "addr:city": "Taguig",
        "addr:housename": "One World Square",
        "addr:street": "Upper McKinley Road",
        "amenity": "cafe",
        "name": "Starbucks"
      },
      "geometry": {
        "type": "Point",
        "coordinates": [
          121.0477886,
          14.5350907
        ]
      },
      "id": "node/251456689"
    },
    {
      "type": "Feature",
      "properties": {
        "@id": "node/255050356",
        "addr:city": "Makati",
        "addr:postcode": "1210",
        "amenity": "cafe",
        "garmin:description": "dining (cafe/diner)",
        "name": "Coffee Bean & Tea Leaf",
        "source": "jklinc",
        "source:url": "http://www.freewebs.com/phroadguide/"
      },
      "geometry": {
        "type": "Point",
        "coordinates": [
          121.0365121,
          14.5652004
        ]
      },
      "id": "node/255050356"
    },
    {
      "type": "Feature",
      "properties": {
        "@id": "node/255050424",
        "addr:city": "Mandaluyong",
        "addr:province": "Metro Manila",
        "addr:street": "Shaw Boulevard",
        "amenity": "cafe",
        "name": "Starbucks"
      },
      "geometry": {
        "type": "Point",
        "coordinates": [
          121.0453375,
          14.58803
        ]
      },
      "id": "node/255050424"
    },
    {
      "type": "Feature",
      "properties": {
        "@id": "node/255060418",
        "addr:city": "Taguig",
        "addr:street": "26th Street",
        "amenity": "cafe",
        "branch": "Forbes Town Center",
        "name": "UCC Coffee Café Terrace"
      },
      "geometry": {
        "type": "Point",
        "coordinates": [
          121.0441467,
          14.5500737
        ]
      },
      "id": "node/255060418"
    },
    {
      "type": "Feature",
      "properties": {
        "@id": "node/255062506",
        "addr:city": "Taguig",
        "addr:housename": "One Parkade",
        "addr:street": "7th Avenue",
        "addr:street:corner": "28th Street",
        "amenity": "cafe",
        "name": "St. Marc Café"
      },
      "geometry": {
        "type": "Point",
        "coordinates": [
          121.0494648,
          14.5502388
        ]
      },
      "id": "node/255062506"
    },
    {
      "type": "Feature",
      "properties": {
        "@id": "node/255063314",
        "amenity": "cafe",
        "cuisine": "coffee_shop",
        "name": "Starbucks Magallanes"
      },
      "geometry": {
        "type": "Point",
        "coordinates": [
          121.0186745,
          14.536007
        ]
      },
      "id": "node/255063314"
    },
    {
      "type": "Feature",
      "properties": {
        "@id": "node/255067086",
        "addr:city": "Makati",
        "addr:housename": "Alpap 1",
        "addr:housenumber": "140",
        "addr:postcode": "1227",
        "addr:street": "L.P. Leviste",
        "amenity": "cafe",
        "name": "Starbucks"
      },
      "geometry": {
        "type": "Point",
        "coordinates": [
          121.0229826,
          14.5594385
        ]
      },
      "id": "node/255067086"
    },
    {
      "type": "Feature",
      "properties": {
        "@id": "node/255068024",
        "addr:city": "Makati",
        "addr:housename": "West Tower, One Rockwell",
        "addr:street": "Rockwell Drive",
        "amenity": "cafe",
        "name": "Starbucks Coffee"
      },
      "geometry": {
        "type": "Point",
        "coordinates": [
          121.0373402,
          14.563184
        ]
      },
      "id": "node/255068024"
    },
    {
      "type": "Feature",
      "properties": {
        "@id": "node/255068231",
        "addr:city": "Makati",
        "addr:housenumber": "22",
        "addr:street": "Jupiter",
        "addr:street:corner": "Galaxy",
        "amenity": "cafe",
        "name": "Yamato Bakery Cafe",
        "phone": "+63 288230960"
      },
      "geometry": {
        "type": "Point",
        "coordinates": [
          121.0334241,
          14.5582428
        ]
      },
      "id": "node/255068231"
    },
    {
      "type": "Feature",
      "properties": {
        "@id": "node/255069505",
        "addr:city": "Parañaque",
        "addr:housename": "Aseana Powerstation",
        "addr:postcode": "1700",
        "addr:street": "Pres. Diosdado Macapagal Boulevard",
        "addr:street:corner": "Bradco Avenue",
        "amenity": "cafe",
        "branch": "Aseana Powerstation",
        "name": "Starbucks Coffee"
      },
      "geometry": {
        "type": "Point",
        "coordinates": [
          120.9889553,
          14.5299915
        ]
      },
      "id": "node/255069505"
    },
    {
      "type": "Feature",
      "properties": {
        "@id": "node/255069701",
        "addr:city": "Makati",
        "addr:housename": "Easton Place",
        "addr:postcode": "1227",
        "addr:street": "Valero",
        "addr:street:corner": "V.A. Rufino",
        "amenity": "cafe",
        "name": "Starbucks Coffee"
      },
      "geometry": {
        "type": "Point",
        "coordinates": [
          121.0197673,
          14.5592928
        ]
      },
      "id": "node/255069701"
    },
    {
      "type": "Feature",
      "properties": {
        "@id": "node/255072141",
        "addr:city": "Makati",
        "addr:floor": "G/F",
        "addr:housename": "Mosaic Tower",
        "addr:housenumber": "115",
        "addr:postcode": "1200",
        "addr:street": "Trasierra",
        "addr:street:corner": "Aguirre",
        "amenity": "cafe",
        "level": "0",
        "name": "Coffee Project"
      },
      "geometry": {
        "type": "Point",
        "coordinates": [
          121.0182239,
          14.5525948
        ]
      },
      "id": "node/255072141"
    },
    {
      "type": "Feature",
      "properties": {
        "@id": "node/394570997",
        "addr:city": "Makati",
        "addr:housename": "The Columns",
        "addr:street": "Senator Gil Puyat Avenue",
        "addr:street:corner": "Ayala Avenue Extension",
        "amenity": "cafe",
        "level": "0",
        "name": "Starbucks Coffee"
      },
      "geometry": {
        "type": "Point",
        "coordinates": [
          121.0167375,
          14.5617886
        ]
      },
      "id": "node/394570997"
    },
    {
      "type": "Feature",
      "properties": {
        "@id": "node/394571059",
        "addr:city": "Makati",
        "addr:street": "Ayala Avenue",
        "amenity": "cafe",
        "brand": "Starbucks",
        "brand:facebook": "https://www.facebook.com/StarbucksPhilippines",
        "brand:website": "https://www.starbucks.ph/",
        "brand:wikidata": "Q37158",
        "brand:wikipedia": "en:Starbucks",
        "cuisine": "coffee_shop",
        "delivery": "no",
        "drive_through": "no",
        "level": "0",
        "name": "Starbucks",
        "official_name": "Starbucks Coffee",
        "operator": "Rustan Coffee Corporation",
        "outdoor_seating": "no",
        "payment:alipay": "yes",
        "payment:cash": "yes",
        "payment:debit_mastercard": "yes",
        "payment:gcash": "yes",
        "payment:grabpay": "yes",
        "payment:mastercard": "yes",
        "payment:visa": "yes",
        "payment:visa_debit": "yes",
        "payment:wechat": "yes",
        "smoking": "no",
        "takeaway": "yes"
      },
      "geometry": {
        "type": "Point",
        "coordinates": [
          121.0150843,
          14.5608605
        ]
      },
      "id": "node/394571059"
    },
    {
      "type": "Feature",
      "properties": {
        "@id": "node/418606694",
        "addr:city": "Makati",
        "addr:postcode": "1227",
        "addr:street": "Villar",
        "amenity": "cafe",
        "name": "Cafe France"
      },
      "geometry": {
        "type": "Point",
        "coordinates": [
          121.0247269,
          14.5588002
        ]
      },
      "id": "node/418606694"
    },
    {
      "type": "Feature",
      "properties": {
        "@id": "node/421722151",
        "amenity": "cafe",
        "name": "Starbucks",
        "operator": "Starbucks"
      },
      "geometry": {
        "type": "Point",
        "coordinates": [
          121.0133274,
          14.5512578
        ]
      },
      "id": "node/421722151"
    },
    {
      "type": "Feature",
      "properties": {
        "@id": "node/421749839",
        "addr:city": "Makati",
        "addr:housename": "Convergys One",
        "addr:housenumber": "6796",
        "addr:street": "Ayala Avenue",
        "addr:street:corner": "Salcedo",
        "amenity": "cafe",
        "name": "The Coffee Bean & Tea Leaf"
      },
      "geometry": {
        "type": "Point",
        "coordinates": [
          121.0162755,
          14.5596579
        ]
      },
      "id": "node/421749839"
    },
    {
      "type": "Feature",
      "properties": {
        "@id": "node/422442069",
        "addr:city": "Makati",
        "addr:housename": "Liberty Center",
        "addr:housenumber": "104",
        "addr:postcode": "1227",
        "addr:street": "H.V. Dela Costa",
        "addr:street:corner": "L.P. Leviste",
        "amenity": "cafe",
        "name": "Figaro"
      },
      "geometry": {
        "type": "Point",
        "coordinates": [
          121.0254742,
          14.560611
        ]
      },
      "id": "node/422442069"
    },
    {
      "type": "Feature",
      "properties": {
        "@id": "node/429847367",
        "addr:city": "Makati",
        "amenity": "cafe",
        "name": "Blenz"
      },
      "geometry": {
        "type": "Point",
        "coordinates": [
          121.017202,
          14.5584395
        ]
      },
      "id": "node/429847367"
    },
    {
      "type": "Feature",
      "properties": {
        "@id": "node/429878403",
        "addr:city": "Makati",
        "addr:street": "Don Chino Roces Avenue",
        "amenity": "cafe",
        "name": "Coco cafe"
      },
      "geometry": {
        "type": "Point",
        "coordinates": [
          121.0136273,
          14.5538165
        ]
      },
      "id": "node/429878403"
    },
    {
      "type": "Feature",
      "properties": {
        "@id": "node/433777088",
        "addr:city": "Makati",
        "addr:postcode": "1227",
        "addr:street": "L.P. Leviste",
        "amenity": "cafe",
        "name": "Vanilla Bean Cafe"
      },
      "geometry": {
        "type": "Point",
        "coordinates": [
          121.0244766,
          14.5601972
        ]
      },
      "id": "node/433777088"
    },
    {
      "type": "Feature",
      "properties": {
        "@id": "node/444390287",
        "addr:city": "Taguig",
        "addr:housename": "One World Square",
        "addr:street": "Florence Way",
        "amenity": "cafe",
        "cuisine": "donut",
        "name": "Dunkin",
        "opening_hours:covid19": "10:00 AM to 7:00 PM, Monday to Sunday"
      },
      "geometry": {
        "type": "Point",
        "coordinates": [
          121.0483396,
          14.5350512
        ]
      },
      "id": "node/444390287"
    },
    {
      "type": "Feature",
      "properties": {
        "@id": "node/444395107",
        "addr:city": "Makati",
        "addr:housename": "Pacific Star Building",
        "addr:postcode": "1200",
        "addr:street": "Senator Gil Puyat Avenue",
        "addr:street:corner": "Makati Avenue",
        "amenity": "cafe",
        "name": "Starbucks Coffee"
      },
      "geometry": {
        "type": "Point",
        "coordinates": [
          121.0271961,
          14.5611295
        ]
      },
      "id": "node/444395107"
    },
    {
      "type": "Feature",
      "properties": {
        "@id": "node/453023105",
        "addr:city": "Makati",
        "addr:housename": "Yupangco Building",
        "addr:postcode": "1200",
        "addr:street": "Jupiter",
        "amenity": "cafe",
        "name": "Starbucks Coffee"
      },
      "geometry": {
        "type": "Point",
        "coordinates": [
          121.0225018,
          14.5626361
        ]
      },
      "id": "node/453023105"
    },
    {
      "type": "Feature",
      "properties": {
        "@id": "node/454056870",
        "addr:city": "Taguig",
        "addr:housename": "Market! Market!",
        "addr:street": "McKinley Parkway",
        "addr:unit": "Space 102",
        "amenity": "cafe",
        "branch": "Market Market - Level 1",
        "cuisine": "coffee_shop",
        "name": "Starbucks Coffee",
        "name:abbr": "Starbucks",
        "short_name": "Starbucks"
      },
      "geometry": {
        "type": "Point",
        "coordinates": [
          121.0559063,
          14.5508559
        ]
      },
      "id": "node/454056870"
    },
    {
      "type": "Feature",
      "properties": {
        "@id": "node/517062576",
        "amenity": "cafe",
        "name": "Happy Cream Puff",
        "shop": "confectionery"
      },
      "geometry": {
        "type": "Point",
        "coordinates": [
          121.0192303,
          14.5627053
        ]
      },
      "id": "node/517062576"
    },
    {
      "type": "Feature",
      "properties": {
        "@id": "node/600323794",
        "addr:city": "Pasig",
        "addr:housename": "Ortigas Park",
        "addr:province": "Metro Manila",
        "addr:street": "F. Ortigas Jr. Road",
        "amenity": "cafe",
        "brand": "The Coffee Bean & Tea Leaf",
        "brand:wikidata": "Q1141384",
        "brand:wikipedia": "en:The Coffee Bean & Tea Leaf",
        "cuisine": "coffee_shop",
        "internet_access": "wlan",
        "internet_access:fee": "customers",
        "name": "The Coffee Bean & Tea Leaf",
        "outdoor_seating": "yes",
        "takeaway": "yes"
      },
      "geometry": {
        "type": "Point",
        "coordinates": [
          121.0613123,
          14.5868025
        ]
      },
      "id": "node/600323794"
    },
    {
      "type": "Feature",
      "properties": {
        "@id": "node/619565713",
        "addr:city": "Makati",
        "addr:floor": "G/F",
        "addr:housename": "Greenbelt 1",
        "addr:postcode": "1228",
        "addr:street": "Paseo de Roxas",
        "addr:street:corner": "Legazpi",
        "amenity": "cafe",
        "level": "0",
        "name": "Starbucks"
      },
      "geometry": {
        "type": "Point",
        "coordinates": [
          121.0197352,
          14.5536746
        ]
      },
      "id": "node/619565713"
    },
    {
      "type": "Feature",
      "properties": {
        "@id": "node/655184597",
        "addr:city": "Manila",
        "addr:housename": "Torre Lorenzo Plaza",
        "addr:street": "Taft Avenue",
        "addr:street:corner": "Pablo Ocampo Sr. Avenue",
        "amenity": "cafe",
        "brand": "Starbucks",
        "brand:wikidata": "Q37158",
        "brand:wikipedia": "en:Starbucks",
        "cuisine": "coffee_shop",
        "name": "Starbucks",
        "official_name": "Starbucks Coffee",
        "takeaway": "yes"
      },
      "geometry": {
        "type": "Point",
        "coordinates": [
          120.9948528,
          14.5626968
        ]
      },
      "id": "node/655184597"
    },
    {
      "type": "Feature",
      "properties": {
        "@id": "node/659637624",
        "addr:city": "Makati",
        "addr:housename": "Plaza One Hundred",
        "addr:postcode": "1200",
        "addr:street": "V. A. Rufino",
        "addr:street:corner": "Dela Rosa",
        "amenity": "cafe",
        "name": "Starbucks Coffee"
      },
      "geometry": {
        "type": "Point",
        "coordinates": [
          121.018322,
          14.5569271
        ]
      },
      "id": "node/659637624"
    },
    {
      "type": "Feature",
      "properties": {
        "@id": "node/664327705",
        "addr:city": "Makati",
        "addr:housename": "Four Seasons",
        "addr:postcode": "1227",
        "addr:street": "Tordesillas",
        "addr:street:corner": "Toledo",
        "amenity": "cafe",
        "name": "The Coffee Bean & Tea Leaf"
      },
      "geometry": {
        "type": "Point",
        "coordinates": [
          121.0236147,
          14.5604883
        ]
      },
      "id": "node/664327705"
    },
    {
      "type": "Feature",
      "properties": {
        "@id": "node/664333558",
        "addr:city": "Makati",
        "addr:housename": "Medical Plaza",
        "addr:street": "Amorsolo",
        "addr:street:corner": "Dela Rosa",
        "amenity": "cafe",
        "level": "0",
        "name": "Figaro"
      },
      "geometry": {
        "type": "Point",
        "coordinates": [
          121.0142671,
          14.5585049
        ]
      },
      "id": "node/664333558"
    },
    {
      "type": "Feature",
      "properties": {
        "@id": "node/664449986",
        "addr:city": "Makati",
        "addr:floor": "G/F",
        "addr:housename": "Ponte Salcedo",
        "addr:housenumber": "120",
        "addr:street": "Valero",
        "addr:unit": "Unit G2",
        "amenity": "cafe",
        "branch": "Valero",
        "level": "0",
        "name": "Seattle's Best Coffee"
      },
      "geometry": {
        "type": "Point",
        "coordinates": [
          121.0200046,
          14.5591617
        ]
      },
      "id": "node/664449986"
    },
    {
      "type": "Feature",
      "properties": {
        "@id": "node/674063986",
        "addr:city": "Makati",
        "addr:housename": "The Columns",
        "addr:street": "Senator Gil Puyat Avenue",
        "addr:street:corner": "Ayala Avenue Extension",
        "amenity": "cafe",
        "level": "0",
        "name": "Kopi Roti"
      },
      "geometry": {
        "type": "Point",
        "coordinates": [
          121.0160401,
          14.5617704
        ]
      },
      "id": "node/674063986"
    },
    {
      "type": "Feature",
      "properties": {
        "@id": "node/674065381",
        "addr:city": "Makati",
        "addr:housename": "Savanah Commercial Center",
        "addr:street": "Pablo Ocampo Sr. Avenue Extension",
        "addr:street:corner": "Don Chino Roces Avenue",
        "amenity": "cafe",
        "brand": "Dunkin' Donuts",
        "brand:wikidata": "Q847743",
        "brand:wikipedia": "en:Dunkin' Donuts",
        "name": "Dunkin' Donuts"
      },
      "geometry": {
        "type": "Point",
        "coordinates": [
          121.0134488,
          14.5665767
        ]
      },
      "id": "node/674065381"
    },
    {
      "type": "Feature",
      "properties": {
        "@id": "node/678987448",
        "addr:city": "Makati",
        "addr:floor": "G/F",
        "addr:housename": "Pearlbank Center",
        "addr:housenumber": "146",
        "addr:postcode": "1227",
        "addr:street": "Valero",
        "amenity": "cafe",
        "branch": "Pearl Bank Center-Valero",
        "cuisine": "coffee_shop",
        "level": "0",
        "name": "Starbucks Coffee",
        "wifi": "yes"
      },
      "geometry": {
        "type": "Point",
        "coordinates": [
          121.0232397,
          14.5588354
        ]
      },
      "id": "node/678987448"
    },
    {
      "type": "Feature",
      "properties": {
        "@id": "node/679927639",
        "addr:city": "Mandaluyong",
        "addr:province": "Metro Manila",
        "amenity": "cafe",
        "name": "Country Style"
      },
      "geometry": {
        "type": "Point",
        "coordinates": [
          121.0479213,
          14.5716684
        ]
      },
      "id": "node/679927639"
    },
    {
      "type": "Feature",
      "properties": {
        "@id": "node/679927772",
        "addr:city": "Mandaluyong",
        "addr:province": "Metro Manila",
        "amenity": "cafe",
        "brand": "Starbucks",
        "brand:wikidata": "Q37158",
        "brand:wikipedia": "en:Starbucks",
        "cuisine": "coffee_shop",
        "name": "Starbucks",
        "official_name": "Starbucks Coffee",
        "takeaway": "yes"
      },
      "geometry": {
        "type": "Point",
        "coordinates": [
          121.0484685,
          14.5709025
        ]
      },
      "id": "node/679927772"
    },
    {
      "type": "Feature",
      "properties": {
        "@id": "node/679951049",
        "addr:city": "Taguig",
        "addr:floor": "2",
        "addr:housename": "B:6, Bonifacio High Street",
        "addr:street": "11th Avenue",
        "amenity": "cafe",
        "branch": "Fully Booked - Bonifacio High Street - Block 6",
        "name": "Starbucks"
      },
      "geometry": {
        "type": "Point",
        "coordinates": [
          121.0526772,
          14.5496867
        ]
      },
      "id": "node/679951049"
    },
    {
      "type": "Feature",
      "properties": {
        "@id": "node/679952825",
        "addr:city": "Taguig",
        "addr:housename": "Serendra",
        "addr:street": "11th Avenue",
        "amenity": "cafe",
        "name": "Gelatissimo Cafe"
      },
      "geometry": {
        "type": "Point",
        "coordinates": [
          121.0537556,
          14.5498375
        ]
      },
      "id": "node/679952825"
    },
    {
      "type": "Feature",
      "properties": {
        "@id": "node/679953695",
        "addr:city": "Taguig",
        "addr:housename": "Serendra",
        "addr:street": "11th Avenue",
        "amenity": "cafe",
        "name": "Cupcakes by Sonja"
      },
      "geometry": {
        "type": "Point",
        "coordinates": [
          121.0536602,
          14.5498667
        ]
      },
      "id": "node/679953695"
    },
    {
      "type": "Feature",
      "properties": {
        "@id": "node/702562349",
        "addr:city": "Taguig",
        "addr:housename": "B:5, Bonifacio High Street",
        "amenity": "cafe",
        "name": "Figaro"
      },
      "geometry": {
        "type": "Point",
        "coordinates": [
          121.051778,
          14.5500934
        ]
      },
      "id": "node/702562349"
    },
    {
      "type": "Feature",
      "properties": {
        "@id": "node/702562359",
        "addr:city": "Taguig",
        "amenity": "cafe",
        "name": "Bo's Coffee"
      },
      "geometry": {
        "type": "Point",
        "coordinates": [
          121.0500446,
          14.5506595
        ]
      },
      "id": "node/702562359"
    },
    {
      "type": "Feature",
      "properties": {
        "@id": "node/702562360",
        "addr:city": "Taguig",
        "addr:housename": "B:3, Bonifacio High Street",
        "addr:street": "9th Avenue",
        "amenity": "cafe",
        "name": "Seattle's Best",
        "name:abbr": "SBC"
      },
      "geometry": {
        "type": "Point",
        "coordinates": [
          121.0511282,
          14.5507825
        ]
      },
      "id": "node/702562360"
    },
    {
      "type": "Feature",
      "properties": {
        "@id": "node/702562366",
        "addr:city": "Taguig",
        "addr:housename": "B:8, Bonifacio High Street",
        "addr:street": "9th Avenue",
        "amenity": "cafe",
        "branch": "Bonifacio High Street",
        "name": "The Coffee Bean & Tea Leaf",
        "name:abbr": "CBTL",
        "short_name": "CBTL"
      },
      "geometry": {
        "type": "Point",
        "coordinates": [
          121.0516929,
          14.5506291
        ]
      },
      "id": "node/702562366"
    },
    {
      "type": "Feature",
      "properties": {
        "@id": "node/746487762",
        "addr:city": "Mandaluyong",
        "addr:floor": "Lower Ground",
        "addr:housename": "Shangri-La Plaza",
        "addr:street": "EDSA",
        "addr:street:corner": "Shaw Boulevard",
        "amenity": "cafe",
        "level": "0",
        "name": "Cafe Lyon",
        "old_name": "Dôme Cafe",
        "wifi": "yes"
      },
      "geometry": {
        "type": "Point",
        "coordinates": [
          121.0557773,
          14.5808473
        ]
      },
      "id": "node/746487762"
    },
    {
      "type": "Feature",
      "properties": {
        "@id": "node/746921050",
        "addr:city": "Pasig",
        "addr:floor": "G/F",
        "addr:housename": "Ortigas Technopoint One",
        "addr:street": "Doña Julia Vargas Avenue",
        "amenity": "cafe",
        "level": "0",
        "name": "Starbucks Coffee"
      },
      "geometry": {
        "type": "Point",
        "coordinates": [
          121.0666538,
          14.5847534
        ]
      },
      "id": "node/746921050"
    },
    {
      "type": "Feature",
      "properties": {
        "@id": "node/746921285",
        "addr:city": "Pasig",
        "addr:housename": "Metrowalk",
        "addr:province": "Metro Manila",
        "addr:street": "Meralco Avenue",
        "amenity": "cafe",
        "name": "Starbucks"
      },
      "geometry": {
        "type": "Point",
        "coordinates": [
          121.0641887,
          14.587683
        ]
      },
      "id": "node/746921285"
    },
    {
      "type": "Feature",
      "properties": {
        "@id": "node/747561971",
        "addr:city": "Pasig",
        "addr:housename": "Hanston Building",
        "addr:province": "Metro Manila",
        "addr:street": "F. Ortigas Jr. Road",
        "amenity": "cafe",
        "name": "Krispy Kreme",
        "opening_hours": "Mo-Sa 09:00-18:00"
      },
      "geometry": {
        "type": "Point",
        "coordinates": [
          121.0614873,
          14.5861917
        ]
      },
      "id": "node/747561971"
    },
    {
      "type": "Feature",
      "properties": {
        "@id": "node/747620940",
        "addr:city": "Pasig",
        "addr:postcode": "1605",
        "addr:province": "Metro Manila",
        "addr:street": "Exchange Road",
        "amenity": "cafe",
        "brand": "Starbucks",
        "brand:wikidata": "Q37158",
        "brand:wikipedia": "en:Starbucks",
        "cuisine": "coffee_shop",
        "name": "Starbucks",
        "outdoor_seating": "no"
      },
      "geometry": {
        "type": "Point",
        "coordinates": [
          121.0620908,
          14.5827527
        ]
      },
      "id": "node/747620940"
    },
    {
      "type": "Feature",
      "properties": {
        "@id": "node/747629390",
        "addr:city": "Pasig",
        "addr:province": "Metro Manila",
        "amenity": "cafe",
        "brand": "Ya Kun Kaya Toast",
        "brand:wikidata": "Q8046237",
        "brand:wikipedia": "en:Ya Kun Kaya Toast",
        "cuisine": "coffee_shop",
        "name": "Ya Kun Kaya Toast",
        "takeaway": "yes"
      },
      "geometry": {
        "type": "Point",
        "coordinates": [
          121.0591583,
          14.57722
        ]
      },
      "id": "node/747629390"
    },
    {
      "type": "Feature",
      "properties": {
        "@id": "node/748626037",
        "addr:city": "Pasig",
        "addr:floor": "G/F",
        "addr:housename": "Anson's",
        "addr:housenumber": "23",
        "addr:province": "Metro Manila",
        "addr:street": "ADB Avenue",
        "amenity": "cafe",
        "brand": "Starbucks",
        "brand:wikidata": "Q37158",
        "brand:wikipedia": "en:Starbucks",
        "cuisine": "coffee_shop",
        "level": "0",
        "name": "Starbucks",
        "official_name": "Starbucks Coffee",
        "takeaway": "yes"
      },
      "geometry": {
        "type": "Point",
        "coordinates": [
          121.0600151,
          14.5861406
        ]
      },
      "id": "node/748626037"
    },
    {
      "type": "Feature",
      "properties": {
        "@id": "node/771169900",
        "amenity": "cafe",
        "name": "Burnt Milk Cafe"
      },
      "geometry": {
        "type": "Point",
        "coordinates": [
          121.0365026,
          14.5356816
        ]
      },
      "id": "node/771169900"
    },
    {
      "type": "Feature",
      "properties": {
        "@id": "node/813135832",
        "addr:city": "Mandaluyong",
        "addr:floor": "G/F",
        "addr:housename": "The Podium",
        "addr:housenumber": "18",
        "addr:street": "ADB Avenue",
        "amenity": "cafe",
        "level": "0",
        "name": "Starbucks Coffee"
      },
      "geometry": {
        "type": "Point",
        "coordinates": [
          121.0594843,
          14.5857199
        ]
      },
      "id": "node/813135832"
    },
    {
      "type": "Feature",
      "properties": {
        "@id": "node/813135850",
        "addr:city": "Mandaluyong",
        "addr:floor": "G/F",
        "addr:housename": "The Podium",
        "addr:housenumber": "18",
        "addr:street": "ADB Avenue",
        "amenity": "cafe",
        "level": "0",
        "name": "Café Breton"
      },
      "geometry": {
        "type": "Point",
        "coordinates": [
          121.0594843,
          14.5856427
        ]
      },
      "id": "node/813135850"
    },
    {
      "type": "Feature",
      "properties": {
        "@id": "node/846904592",
        "addr:city": "Taguig",
        "addr:housename": "Burgos Circle",
        "addr:street": "Burgos Circle",
        "addr:street:corner": "29th Street",
        "amenity": "cafe",
        "branch": "Burgos Circle - Forbestown",
        "name": "The Coffee Bean",
        "name:abbr": "CBTL"
      },
      "geometry": {
        "type": "Point",
        "coordinates": [
          121.0447454,
          14.5524577
        ]
      },
      "id": "node/846904592"
    },
    {
      "type": "Feature",
      "properties": {
        "@id": "node/846904604",
        "addr:city": "Taguig",
        "addr:housename": "Burgos Circle",
        "addr:street": "Burgos Circle",
        "amenity": "cafe",
        "name": "UCC Coffee Park Café"
      },
      "geometry": {
        "type": "Point",
        "coordinates": [
          121.0438463,
          14.552648
        ]
      },
      "id": "node/846904604"
    },
    {
      "type": "Feature",
      "properties": {
        "@id": "node/864688180",
        "addr:city": "Taguig",
        "addr:housename": "Market! Market!",
        "addr:street": "McKinley Parkway",
        "amenity": "cafe",
        "name": "Seattle's Best Coffee"
      },
      "geometry": {
        "type": "Point",
        "coordinates": [
          121.0554851,
          14.5493956
        ]
      },
      "id": "node/864688180"
    },
    {
      "type": "Feature",
      "properties": {
        "@id": "node/868208002",
        "amenity": "cafe",
        "name": "Offbeat Cafe"
      },
      "geometry": {
        "type": "Point",
        "coordinates": [
          121.0065285,
          14.5672721
        ]
      },
      "id": "node/868208002"
    },
    {
      "type": "Feature",
      "properties": {
        "@id": "node/943229683",
        "addr:city": "Pasay",
        "addr:street": "Andrews Avenue",
        "amenity": "cafe",
        "name": "Cafe Bonjour"
      },
      "geometry": {
        "type": "Point",
        "coordinates": [
          121.0157536,
          14.520731
        ]
      },
      "id": "node/943229683"
    },
    {
      "type": "Feature",
      "properties": {
        "@id": "node/950657460",
        "addr:city": "Makati",
        "addr:housename": "China Bank Building",
        "addr:housenumber": "8745",
        "addr:street": "Paseo de Roxas",
        "addr:street:corner": "Villar",
        "amenity": "cafe",
        "name": "Starbucks"
      },
      "geometry": {
        "type": "Point",
        "coordinates": [
          121.0248577,
          14.5584398
        ]
      },
      "id": "node/950657460"
    },
    {
      "type": "Feature",
      "properties": {
        "@id": "node/953685894",
        "addr:city": "Makati",
        "addr:housename": "Development Bank of the Philippines",
        "addr:street": "Senator Gil Puyat Avenue",
        "addr:street:corner": "Makati Avenue",
        "amenity": "cafe",
        "name": "Figaro"
      },
      "geometry": {
        "type": "Point",
        "coordinates": [
          121.0278096,
          14.5607531
        ]
      },
      "id": "node/953685894"
    },
    {
      "type": "Feature",
      "properties": {
        "@id": "node/955605057",
        "addr:city": "Makati",
        "addr:street": "Paseo de Roxas",
        "amenity": "cafe",
        "name": "Starbucks"
      },
      "geometry": {
        "type": "Point",
        "coordinates": [
          121.0233626,
          14.5577148
        ]
      },
      "id": "node/955605057"
    },
    {
      "type": "Feature",
      "properties": {
        "@id": "node/962958208",
        "addr:city": "Pasig",
        "addr:province": "Metro Manila",
        "amenity": "cafe",
        "name": "Starbucks"
      },
      "geometry": {
        "type": "Point",
        "coordinates": [
          121.0598442,
          14.5801184
        ]
      },
      "id": "node/962958208"
    },
    {
      "type": "Feature",
      "properties": {
        "@id": "node/1000831187",
        "addr:city": "Makati",
        "addr:housename": "Makati Stock Exchange Building",
        "addr:street": "Ayala Avenue",
        "amenity": "cafe",
        "branch": "Makati Stock Exchange",
        "name": "Starbucks"
      },
      "geometry": {
        "type": "Point",
        "coordinates": [
          121.0233873,
          14.555762
        ]
      },
      "id": "node/1000831187"
    },
    {
      "type": "Feature",
      "properties": {
        "@id": "node/1020096633",
        "addr:city": "Makati",
        "addr:floor": "G/F",
        "addr:housename": "Glorietta 5",
        "addr:street": "North",
        "addr:street:corner": "East",
        "amenity": "cafe",
        "level": "0",
        "name": "Bo's Coffee"
      },
      "geometry": {
        "type": "Point",
        "coordinates": [
          121.0269681,
          14.551704
        ]
      },
      "id": "node/1020096633"
    },
    {
      "type": "Feature",
      "properties": {
        "@id": "node/1068757283",
        "addr:city": "Makati",
        "addr:street": "Ayala Triangle Gardens",
        "amenity": "cafe",
        "name": "The Coffee Bean & Tea Leaf",
        "source": "photogeotag & garmin76csx"
      },
      "geometry": {
        "type": "Point",
        "coordinates": [
          121.0238309,
          14.5564744
        ]
      },
      "id": "node/1068757283"
    },
    {
      "type": "Feature",
      "properties": {
        "@id": "node/1105718163",
        "addr:city": "Taguig",
        "addr:housename": "Three World Square",
        "addr:street": "Upper McKinley Road",
        "amenity": "cafe",
        "name": "Country Style"
      },
      "geometry": {
        "type": "Point",
        "coordinates": [
          121.0506132,
          14.5348547
        ]
      },
      "id": "node/1105718163"
    },
    {
      "type": "Feature",
      "properties": {
        "@id": "node/1120041127",
        "addr:city": "Manila",
        "addr:housename": "Marryville",
        "addr:housenumber": "2456",
        "addr:postcode": "1004",
        "addr:province": "Metro Manila",
        "addr:street": "Taft Avenue",
        "alt_name": "LBCB",
        "amenity": "cafe",
        "cuisine": "coffee_shop",
        "facebook": "https://www.facebook.com/luckybeancoffeebar",
        "internet_access": "wlan",
        "name": "Lucky Bean Coffee Bar",
        "old_name": "Bean Hoppers",
        "smoking": "outside",
        "wifi": "free"
      },
      "geometry": {
        "type": "Point",
        "coordinates": [
          120.9942529,
          14.5649893
        ]
      },
      "id": "node/1120041127"
    },
    {
      "type": "Feature",
      "properties": {
        "@id": "node/1134951774",
        "addr:city": "Makati",
        "addr:floor": "G/F",
        "addr:housename": "Paseo Center",
        "addr:housenumber": "8757",
        "addr:street": "Paseo de Roxas",
        "addr:street:corner": "Sedeño",
        "amenity": "cafe",
        "level": "0",
        "name": "UCC Coffee Café Terrace"
      },
      "geometry": {
        "type": "Point",
        "coordinates": [
          121.0228702,
          14.5576279
        ]
      },
      "id": "node/1134951774"
    },
    {
      "type": "Feature",
      "properties": {
        "@id": "node/1135423043",
        "addr:city": "Makati",
        "addr:housename": "Valero Carpark 2",
        "addr:housenumber": "149",
        "addr:postcode": "1227",
        "addr:street": "Valero",
        "amenity": "cafe",
        "cuisine": "coffee_shop",
        "name": "Krispy Kreme",
        "wifi": "free"
      },
      "geometry": {
        "type": "Point",
        "coordinates": [
          121.0241097,
          14.558742
        ]
      },
      "id": "node/1135423043"
    },
    {
      "type": "Feature",
      "properties": {
        "@id": "node/1169222435",
        "addr:housename": "Market! Market!",
        "amenity": "cafe",
        "cuisine": "donut",
        "name": "Tim Hortons"
      },
      "geometry": {
        "type": "Point",
        "coordinates": [
          121.0563594,
          14.5490856
        ]
      },
      "id": "node/1169222435"
    },
    {
      "type": "Feature",
      "properties": {
        "@id": "node/1190353431",
        "addr:city": "Mandaluyong",
        "addr:housename": "Worldwide Corporate Center",
        "addr:postcode": "1552",
        "addr:street": "Shaw Boulevard",
        "amenity": "cafe",
        "level": "1",
        "name": "Starbucks"
      },
      "geometry": {
        "type": "Point",
        "coordinates": [
          121.0515209,
          14.5825971
        ]
      },
      "id": "node/1190353431"
    },
    {
      "type": "Feature",
      "properties": {
        "@id": "node/1197029147",
        "addr:city": "Parañaque",
        "addr:housename": "Aseana Powerstation",
        "addr:street": "Pres. Diosdado Macapagal Boulevard",
        "addr:street:corner": "Bradco Avenue",
        "amenity": "cafe",
        "name": "Life Coffee & Tea"
      },
      "geometry": {
        "type": "Point",
        "coordinates": [
          120.9891003,
          14.529608
        ]
      },
      "id": "node/1197029147"
    },
    {
      "type": "Feature",
      "properties": {
        "@id": "node/1203973554",
        "addr:city": "Pasig",
        "addr:housename": "Emerald Building",
        "addr:housenumber": "24",
        "addr:province": "Metro Manila",
        "addr:street": "F. Ortigas Jr. Road",
        "amenity": "cafe",
        "name": "Starbucks"
      },
      "geometry": {
        "type": "Point",
        "coordinates": [
          121.0614617,
          14.5857196
        ]
      },
      "id": "node/1203973554"
    },
    {
      "type": "Feature",
      "properties": {
        "@id": "node/1235432140",
        "addr:city": "Taguig",
        "addr:housename": "Venice Piazza",
        "addr:street": "Upper McKinley Road",
        "alt_name": "CBTL",
        "amenity": "cafe",
        "brand": "The Coffee Bean & Tea Leaf",
        "brand:wikidata": "Q1141384",
        "brand:wikipedia": "en:The Coffee Bean & Tea Leaf",
        "cuisine": "coffee_shop",
        "internet_access": "wlan",
        "name": "The Coffee Bean & Tea Leaf",
        "takeaway": "yes"
      },
      "geometry": {
        "type": "Point",
        "coordinates": [
          121.0512991,
          14.5345727
        ]
      },
      "id": "node/1235432140"
    },
    {
      "type": "Feature",
      "properties": {
        "@id": "node/1243320289",
        "addr:city": "Makati",
        "addr:floor": "G/F",
        "addr:housename": "Keyland Centre",
        "addr:housenumber": "143",
        "addr:street": "Dela Rosa",
        "addr:street:corner": "Adelantado",
        "amenity": "cafe",
        "branch": "Keyland Centre",
        "cuisine": "coffee_shop",
        "level": "0",
        "name": "Starbucks Reserve"
      },
      "geometry": {
        "type": "Point",
        "coordinates": [
          121.0148808,
          14.558524
        ]
      },
      "id": "node/1243320289"
    },
    {
      "type": "Feature",
      "properties": {
        "@id": "node/1253938755",
        "addr:city": "Taguig",
        "addr:housename": "Crescent Park Residences",
        "addr:street": "2nd Avenue",
        "amenity": "cafe",
        "branch": "Crescent Park Residences",
        "name": "Starbucks"
      },
      "geometry": {
        "type": "Point",
        "coordinates": [
          121.0444389,
          14.5534853
        ]
      },
      "id": "node/1253938755"
    },
    {
      "type": "Feature",
      "properties": {
        "@id": "node/1265287179",
        "addr:city": "Taguig",
        "addr:housename": "Market! Market!",
        "addr:street": "McKinley Parkway",
        "amenity": "cafe",
        "name": "Café de Lipa"
      },
      "geometry": {
        "type": "Point",
        "coordinates": [
          121.05555,
          14.550529
        ]
      },
      "id": "node/1265287179"
    },
    {
      "type": "Feature",
      "properties": {
        "@id": "node/1268358505",
        "addr:city": "Makati",
        "addr:floor": "G/F",
        "addr:housename": "Greenbelt 3",
        "addr:street": "Esperanza",
        "addr:street:corner": "Makati Avenue",
        "amenity": "cafe",
        "level": "0",
        "name": "Seattle's Best Coffee"
      },
      "geometry": {
        "type": "Point",
        "coordinates": [
          121.0214354,
          14.5520834
        ]
      },
      "id": "node/1268358505"
    },
    {
      "type": "Feature",
      "properties": {
        "@id": "node/1268358509",
        "addr:city": "Makati",
        "addr:floor": "G/F",
        "addr:housename": "Greenbelt 3",
        "addr:street": "Esperanza",
        "addr:street:corner": "Makati Avenue",
        "amenity": "cafe",
        "level": "0",
        "name": "Starbucks Coffee"
      },
      "geometry": {
        "type": "Point",
        "coordinates": [
          121.0219604,
          14.5521354
        ]
      },
      "id": "node/1268358509"
    },
    {
      "type": "Feature",
      "properties": {
        "@id": "node/1290578726",
        "addr:city": "Makati",
        "addr:floor": "G/F",
        "addr:housename": "The Link",
        "addr:street": "West",
        "amenity": "cafe",
        "level": "0",
        "name": "Tim Hortons"
      },
      "geometry": {
        "type": "Point",
        "coordinates": [
          121.024457,
          14.5528047
        ]
      },
      "id": "node/1290578726"
    },
    {
      "type": "Feature",
      "properties": {
        "@id": "node/1290578741",
        "addr:city": "Makati",
        "addr:floor": "G/F",
        "addr:housename": "6750 Ayala Avenue",
        "addr:street": "North",
        "addr:street:corner": "West",
        "amenity": "cafe",
        "branch": "6750 Ayala Avenue",
        "brand:wikidata": "Q37158",
        "brand:wikipedia": "Starbucks",
        "cuisine": "coffee_shop",
        "level": "0",
        "name": "Starbucks Coffee",
        "operator": "Rustan Coffee Corporation",
        "outdoor_seating": "no",
        "ref:vatin": "PH005215077034",
        "smoking": "no",
        "wheelchair": "limited"
      },
      "geometry": {
        "type": "Point",
        "coordinates": [
          121.0252815,
          14.5531233
        ]
      },
      "id": "node/1290578741"
    },
    {
      "type": "Feature",
      "properties": {
        "@id": "node/1321374724",
        "addr:housename": "ACCRALAW Tower",
        "addr:street": "2nd Avenue",
        "addr:street:corner": "30th Street",
        "amenity": "cafe",
        "level": "0"
      },
      "geometry": {
        "type": "Point",
        "coordinates": [
          121.0448584,
          14.5536671
        ]
      },
      "id": "node/1321374724"
    },
    {
      "type": "Feature",
      "properties": {
        "@id": "node/1329886332",
        "addr:city": "Taguig",
        "addr:housename": "Philplans Corporate Center",
        "addr:housenumber": "1012",
        "addr:street": "Triangle Drive",
        "addr:unit": "7",
        "amenity": "cafe",
        "branch": "Philplans Corporate Center",
        "brand": "Starbucks",
        "brand:wikidata": "Q37158",
        "brand:wikipedia": "en:Starbucks",
        "cuisine": "coffee_shop",
        "name": "Starbucks",
        "official_name": "Starbucks Coffee",
        "takeaway": "yes"
      },
      "geometry": {
        "type": "Point",
        "coordinates": [
          121.0558652,
          14.5605069
        ]
      },
      "id": "node/1329886332"
    },
    {
      "type": "Feature",
      "properties": {
        "@id": "node/1346621381",
        "amenity": "cafe",
        "name": "Park Avenue Dessert"
      },
      "geometry": {
        "type": "Point",
        "coordinates": [
          121.0171191,
          14.5389202
        ]
      },
      "id": "node/1346621381"
    },
    {
      "type": "Feature",
      "properties": {
        "@id": "node/1400646522",
        "addr:housename": "Centrum II",
        "addr:housenumber": "150",
        "addr:postcode": "1227",
        "addr:street": "Valero",
        "amenity": "cafe",
        "cuisine": "sandwich",
        "name": "Army Navy"
      },
      "geometry": {
        "type": "Point",
        "coordinates": [
          121.0237248,
          14.5589964
        ]
      },
      "id": "node/1400646522"
    },
    {
      "type": "Feature",
      "properties": {
        "@id": "node/1400646525",
        "addr:city": "Makati",
        "addr:floor": "G/F",
        "addr:housename": "Paseo Center",
        "addr:housenumber": "8757",
        "addr:street": "Paseo de Roxas",
        "addr:street:corner": "Sedeño",
        "amenity": "cafe",
        "level": "0",
        "name": "J.CO Donuts & Coffee"
      },
      "geometry": {
        "type": "Point",
        "coordinates": [
          121.0228308,
          14.5577597
        ]
      },
      "id": "node/1400646525"
    },
    {
      "type": "Feature",
      "properties": {
        "@id": "node/1413649980",
        "addr:city": "Pasig",
        "addr:housename": "Hanston Square",
        "addr:housenumber": "17",
        "addr:province": "Metro Manila",
        "addr:street": "San Miguel Avenue",
        "amenity": "cafe",
        "branch": "Hanston Square San Miguel Avenue",
        "name": "Starbucks",
        "opening_hours": "Mo-Fr 09:00-22:00"
      },
      "geometry": {
        "type": "Point",
        "coordinates": [
          121.0586435,
          14.5795139
        ]
      },
      "id": "node/1413649980"
    },
    {
      "type": "Feature",
      "properties": {
        "@id": "node/1413689247",
        "addr:city": "Pasig",
        "addr:floor": "G/F",
        "addr:housename": "Rockwell Business Center Tower 2",
        "addr:place": "Ortigas Center",
        "addr:postcode": "1604",
        "addr:street": "Ortigas Avenue",
        "amenity": "cafe",
        "level": "0",
        "name": "The Coffee Bean & Tea Leaf"
      },
      "geometry": {
        "type": "Point",
        "coordinates": [
          121.0681637,
          14.59001
        ]
      },
      "id": "node/1413689247"
    },
    {
      "type": "Feature",
      "properties": {
        "@id": "node/1413689275",
        "addr:city": "Pasig",
        "addr:floor": "G/F",
        "addr:housename": "Rockwell Business Center Tower 1",
        "addr:place": "Ortigas Center",
        "addr:street": "Ortigas Avenue",
        "amenity": "cafe",
        "level": "0",
        "name": "Starbucks"
      },
      "geometry": {
        "type": "Point",
        "coordinates": [
          121.0677494,
          14.5898043
        ]
      },
      "id": "node/1413689275"
    },
    {
      "type": "Feature",
      "properties": {
        "@id": "node/1415035891",
        "addr:city": "Taguig",
        "addr:housename": "Net Quad Center",
        "addr:street": "4th Avenue",
        "addr:street:corner": "30th Street",
        "amenity": "cafe",
        "branch": "303 Net Quad - Bonifacio Global City",
        "name": "Starbucks"
      },
      "geometry": {
        "type": "Point",
        "coordinates": [
          121.0471314,
          14.5529495
        ]
      },
      "id": "node/1415035891"
    },
    {
      "type": "Feature",
      "properties": {
        "@id": "node/1472880747",
        "amenity": "cafe",
        "name": "Tow and Stow",
        "name:en": "Tow and Stow"
      },
      "geometry": {
        "type": "Point",
        "coordinates": [
          121.0231684,
          14.5317238
        ]
      },
      "id": "node/1472880747"
    },
    {
      "type": "Feature",
      "properties": {
        "@id": "node/1500906880",
        "addr:city": "Makati",
        "addr:housename": "The World Centre",
        "addr:postcode": "1227",
        "addr:street": "H. V. Dela Costa",
        "amenity": "cafe",
        "branch": "World Centre",
        "brand": "Starbucks",
        "brand:wikidata": "Q37158",
        "brand:wikipedia": "en:Starbucks",
        "cuisine": "coffee_shop",
        "name": "Starbucks",
        "official_name": "Starbucks Coffee",
        "takeaway": "yes"
      },
      "geometry": {
        "type": "Point",
        "coordinates": [
          121.021637,
          14.5614714
        ]
      },
      "id": "node/1500906880"
    },
    {
      "type": "Feature",
      "properties": {
        "@id": "node/1556442291",
        "addr:city": "Pasig",
        "addr:province": "Metro Manila",
        "addr:street": "Oranbo Drive",
        "amenity": "cafe",
        "name": "Dunkin' Donuts"
      },
      "geometry": {
        "type": "Point",
        "coordinates": [
          121.0640905,
          14.5733742
        ]
      },
      "id": "node/1556442291"
    },
    {
      "type": "Feature",
      "properties": {
        "@id": "node/1585274728",
        "addr:city": "Taguig",
        "addr:housename": "Forbes Town Center",
        "addr:street": "Forbes Town Road",
        "amenity": "cafe",
        "name": "Serenitea"
      },
      "geometry": {
        "type": "Point",
        "coordinates": [
          121.044031,
          14.5518661
        ]
      },
      "id": "node/1585274728"
    },
    {
      "type": "Feature",
      "properties": {
        "@id": "node/1585863431",
        "addr:city": "Taguig",
        "addr:housename": "Commercenter",
        "addr:street": "4th Avenue",
        "addr:street:corner": "31st Street",
        "amenity": "cafe",
        "cuisine": "milk_tea",
        "internet_access": "yes",
        "name": "Chatime"
      },
      "geometry": {
        "type": "Point",
        "coordinates": [
          121.0474917,
          14.5539819
        ]
      },
      "id": "node/1585863431"
    },
    {
      "type": "Feature",
      "properties": {
        "@id": "node/1618316700",
        "addr:city": "Pasig",
        "addr:housename": "Pioneer Center",
        "addr:province": "Metro Manila",
        "addr:street": "Pioneer",
        "addr:street:corner": "United Avenue",
        "amenity": "cafe",
        "brand": "Starbucks",
        "brand:wikidata": "Q37158",
        "brand:wikipedia": "en:Starbucks",
        "cuisine": "coffee_shop",
        "name": "Starbucks",
        "official_name": "Starbucks Coffee",
        "takeaway": "yes"
      },
      "geometry": {
        "type": "Point",
        "coordinates": [
          121.0577524,
          14.5740911
        ]
      },
      "id": "node/1618316700"
    },
    {
      "type": "Feature",
      "properties": {
        "@id": "node/1618316738",
        "addr:city": "Mandaluyong",
        "addr:housename": "Robinsons Cybergate Tower 3",
        "addr:province": "Metro Manila",
        "addr:street": "Pioneer",
        "addr:unit": "3",
        "amenity": "cafe",
        "branch": "Cybergate"
      },
      "geometry": {
        "type": "Point",
        "coordinates": [
          121.0501508,
          14.5709853
        ]
      },
      "id": "node/1618316738"
    },
    {
      "type": "Feature",
      "properties": {
        "@id": "node/1663999093",
        "addr:city": "Mandaluyong",
        "addr:province": "Metro Manila",
        "amenity": "cafe",
        "brand": "Dunkin' Donuts",
        "brand:wikidata": "Q847743",
        "brand:wikipedia": "en:Dunkin' Donuts",
        "name": "Dunkin' Donuts"
      },
      "geometry": {
        "type": "Point",
        "coordinates": [
          121.0531998,
          14.5811122
        ]
      },
      "id": "node/1663999093"
    },
    {
      "type": "Feature",
      "properties": {
        "@id": "node/1669881500",
        "addr:city": "Taguig",
        "addr:housename": "Commercenter",
        "addr:street": "4th Avenue",
        "addr:street:corner": "31st Street",
        "amenity": "cafe",
        "name": "Kuppa"
      },
      "geometry": {
        "type": "Point",
        "coordinates": [
          121.047391,
          14.5538831
        ]
      },
      "id": "node/1669881500"
    },
    {
      "type": "Feature",
      "properties": {
        "@id": "node/1669881506",
        "addr:city": "Taguig",
        "addr:housename": "One McKinley Place",
        "addr:street": "26th Street",
        "addr:street:corner": "4th Avenue",
        "amenity": "cafe",
        "name": "Seattle's Best Coffee"
      },
      "geometry": {
        "type": "Point",
        "coordinates": [
          121.0458335,
          14.5491986
        ]
      },
      "id": "node/1669881506"
    },
    {
      "type": "Feature",
      "properties": {
        "@id": "node/1688081406",
        "addr:city": "Pasig",
        "addr:housename": "Silver City Automall",
        "addr:province": "Metro Manila",
        "addr:street": "Doña Julia Vargas Avenue",
        "addr:street:corner": "Frontera Drive",
        "amenity": "cafe",
        "brand": "Starbucks",
        "brand:wikidata": "Q37158",
        "brand:wikipedia": "en:Starbucks",
        "cuisine": "coffee_shop",
        "name": "Starbucks",
        "official_name": "Starbucks Coffee",
        "takeaway": "yes"
      },
      "geometry": {
        "type": "Point",
        "coordinates": [
          121.0756638,
          14.583837
        ]
      },
      "id": "node/1688081406"
    },
    {
      "type": "Feature",
      "properties": {
        "@id": "node/1688083123",
        "addr:city": "Makati",
        "addr:housename": "Joya Towers & Lofts",
        "addr:street": "Estrella",
        "amenity": "cafe",
        "name": "Figaro"
      },
      "geometry": {
        "type": "Point",
        "coordinates": [
          121.0379208,
          14.5649308
        ]
      },
      "id": "node/1688083123"
    },
    {
      "type": "Feature",
      "properties": {
        "@id": "node/1688083126",
        "addr:city": "Makati",
        "addr:housename": "Power Plant Mall",
        "addr:street": "Plaza Drive",
        "amenity": "cafe",
        "brand": "Starbucks",
        "brand:wikidata": "Q37158",
        "brand:wikipedia": "en:Starbucks",
        "cuisine": "coffee_shop",
        "name": "Starbucks",
        "official_name": "Starbucks Coffee",
        "takeaway": "yes"
      },
      "geometry": {
        "type": "Point",
        "coordinates": [
          121.0367241,
          14.5651006
        ]
      },
      "id": "node/1688083126"
    },
    {
      "type": "Feature",
      "properties": {
        "@id": "node/1689432570",
        "addr:city": "Makati",
        "addr:housename": "BPI Family Bank Center",
        "addr:housenumber": "102",
        "addr:street": "Paseo de Roxas",
        "addr:street:corner": "Nieva",
        "amenity": "cafe",
        "name": "Figaro"
      },
      "geometry": {
        "type": "Point",
        "coordinates": [
          121.0203729,
          14.5553852
        ]
      },
      "id": "node/1689432570"
    },
    {
      "type": "Feature",
      "properties": {
        "@id": "node/1689432633",
        "addr:city": "Makati",
        "addr:housename": "Mayfair Mansion",
        "addr:housenumber": "116",
        "addr:postcode": "1229",
        "addr:street": "Perea",
        "amenity": "cafe",
        "name": "Local Edition",
        "source": "survey"
      },
      "geometry": {
        "type": "Point",
        "coordinates": [
          121.0203229,
          14.5545305
        ]
      },
      "id": "node/1689432633"
    },
    {
      "type": "Feature",
      "properties": {
        "@id": "node/1740306401",
        "addr:city": "Manila",
        "addr:province": "Metro Manila",
        "amenity": "cafe",
        "brand": "Starbucks",
        "brand:wikidata": "Q37158",
        "brand:wikipedia": "en:Starbucks",
        "cuisine": "coffee_shop",
        "name": "Starbucks",
        "official_name": "Starbucks Coffee",
        "takeaway": "yes"
      },
      "geometry": {
        "type": "Point",
        "coordinates": [
          120.9946136,
          14.5642099
        ]
      },
      "id": "node/1740306401"
    },
    {
      "type": "Feature",
      "properties": {
        "@id": "node/1742329367",
        "addr:city": "Pasig",
        "addr:floor": "G/F",
        "addr:housename": "The Exchange Regency",
        "addr:street": "Exchange Road",
        "addr:street:corner": "Meralco Avenue",
        "amenity": "cafe",
        "level": "0",
        "name": "Tully's Coffee",
        "name:it": "Tully's"
      },
      "geometry": {
        "type": "Point",
        "coordinates": [
          121.0632466,
          14.5831057
        ]
      },
      "id": "node/1742329367"
    },
    {
      "type": "Feature",
      "properties": {
        "@id": "node/1750312028",
        "addr:city": "Makati",
        "addr:housename": "Petron Square Dasmariñas",
        "addr:street": "Epifanio de Los Santos Avenue",
        "addr:street:corner": "Pasay Road",
        "amenity": "cafe",
        "name": "UCC Coffee Park Café Express"
      },
      "geometry": {
        "type": "Point",
        "coordinates": [
          121.0266789,
          14.5474592
        ]
      },
      "id": "node/1750312028"
    },
    {
      "type": "Feature",
      "properties": {
        "@id": "node/1759358509",
        "addr:city": "Pasig",
        "addr:housename": "D'Ace Plaza",
        "addr:province": "Metro Manila",
        "addr:street": "United Avenue",
        "addr:street:corner": "Brixton",
        "addr:unit": "UG05",
        "amenity": "cafe",
        "branch": "Ace Plaza",
        "name": "Figaro"
      },
      "geometry": {
        "type": "Point",
        "coordinates": [
          121.0591248,
          14.5734563
        ]
      },
      "id": "node/1759358509"
    },
    {
      "type": "Feature",
      "properties": {
        "@id": "node/1759358516",
        "addr:city": "Pasig",
        "addr:housename": "D'Ace Plaza",
        "addr:province": "Metro Manila",
        "addr:street": "United Avenue",
        "addr:street:corner": "Brixton",
        "amenity": "cafe",
        "branch": "Pioneer, Pasig",
        "cuisine": "sho",
        "name": "Share Tea"
      },
      "geometry": {
        "type": "Point",
        "coordinates": [
          121.0591924,
          14.5733909
        ]
      },
      "id": "node/1759358516"
    },
    {
      "type": "Feature",
      "properties": {
        "@id": "node/1781307403",
        "addr:floor": "L",
        "addr:housename": "The Enterprise Center",
        "addr:housenumber": "6766",
        "addr:postcode": "1226",
        "addr:street": "Ayala Avenue",
        "amenity": "cafe",
        "brand": "Starbucks",
        "brand:wikidata": "Q37158",
        "brand:wikipedia": "en:Starbucks",
        "cuisine": "coffee_shop",
        "name": "Starbucks",
        "official_name": "Starbucks Coffee",
        "takeaway": "yes"
      },
      "geometry": {
        "type": "Point",
        "coordinates": [
          121.0210122,
          14.555771
        ]
      },
      "id": "node/1781307403"
    },
    {
      "type": "Feature",
      "properties": {
        "@id": "node/1841372149",
        "amenity": "cafe",
        "name": "Cubana"
      },
      "geometry": {
        "type": "Point",
        "coordinates": [
          121.0295371,
          14.5634099
        ]
      },
      "id": "node/1841372149"
    },
    {
      "type": "Feature",
      "properties": {
        "@id": "node/1921384012",
        "addr:city": "Taguig",
        "addr:floor": "G/F",
        "addr:housename": "Bonifacio One Technology Tower",
        "addr:housenumber": "3030",
        "addr:street": "Rizal Drive",
        "addr:street:corner": "31st Street",
        "amenity": "cafe",
        "level": "0",
        "name": "Serenitea"
      },
      "geometry": {
        "type": "Point",
        "coordinates": [
          121.0454907,
          14.5540817
        ]
      },
      "id": "node/1921384012"
    },
    {
      "type": "Feature",
      "properties": {
        "@id": "node/1966789190",
        "addr:city": "Pasig",
        "addr:province": "Metro Manila",
        "amenity": "cafe",
        "name": "Dunkin Donuts"
      },
      "geometry": {
        "type": "Point",
        "coordinates": [
          121.0776695,
          14.5610234
        ]
      },
      "id": "node/1966789190"
    },
    {
      "type": "Feature",
      "properties": {
        "@id": "node/1981387426",
        "addr:city": "Mandaluyong",
        "addr:floor": "LG",
        "addr:housename": "Shangri-La Plaza",
        "addr:street": "EDSA",
        "addr:street:corner": "Shaw Boulevard",
        "amenity": "cafe",
        "level": "0",
        "name": "Starbucks Coffee"
      },
      "geometry": {
        "type": "Point",
        "coordinates": [
          121.0548679,
          14.5815514
        ]
      },
      "id": "node/1981387426"
    },
    {
      "type": "Feature",
      "properties": {
        "@id": "node/2027071185",
        "addr:city": "Taguig",
        "addr:housename": "8/10 Upper McKinley Road",
        "addr:street": "Upper McKinley Road",
        "amenity": "cafe",
        "branch": "McKinley",
        "name": "Moonleaf Tea Shop"
      },
      "geometry": {
        "type": "Point",
        "coordinates": [
          121.0486906,
          14.5351133
        ]
      },
      "id": "node/2027071185"
    },
    {
      "type": "Feature",
      "properties": {
        "@id": "node/2047434413",
        "addr:city": "Pasig",
        "addr:province": "Metro Manila",
        "amenity": "cafe",
        "cuisine": "coffee_shop",
        "name": "Daily Favor Cafe"
      },
      "geometry": {
        "type": "Point",
        "coordinates": [
          121.077911,
          14.5620268
        ]
      },
      "id": "node/2047434413"
    },
    {
      "type": "Feature",
      "properties": {
        "@id": "node/2052370908",
        "addr:city": "Mandaluyong",
        "addr:province": "Metro Manila",
        "amenity": "cafe",
        "brand": "Dunkin' Donuts",
        "brand:wikidata": "Q847743",
        "brand:wikipedia": "en:Dunkin' Donuts",
        "name": "Dunkin' Donuts"
      },
      "geometry": {
        "type": "Point",
        "coordinates": [
          121.0531674,
          14.5800296
        ]
      },
      "id": "node/2052370908"
    },
    {
      "type": "Feature",
      "properties": {
        "@id": "node/2060853890",
        "addr:city": "Pasig",
        "addr:province": "Metro Manila",
        "amenity": "cafe",
        "name": "Dunkin' Donuts"
      },
      "geometry": {
        "type": "Point",
        "coordinates": [
          121.0598806,
          14.5801537
        ]
      },
      "id": "node/2060853890"
    },
    {
      "type": "Feature",
      "properties": {
        "@id": "node/2062630221",
        "addr:city": "Mandaluyong",
        "addr:housename": "The Portal",
        "addr:province": "Metro Manila",
        "addr:street": "Mayflower",
        "amenity": "cafe",
        "name": "Starbucks"
      },
      "geometry": {
        "type": "Point",
        "coordinates": [
          121.0541111,
          14.5786601
        ]
      },
      "id": "node/2062630221"
    },
    {
      "type": "Feature",
      "properties": {
        "@id": "node/2071070951",
        "addr:city": "Makati",
        "addr:housename": "The KPMG Center",
        "addr:housenumber": "6787",
        "addr:postcode": "1226",
        "addr:street": "Ayala Avenue",
        "amenity": "cafe",
        "internet_access": "yes",
        "name": "Tea Farm Cafe"
      },
      "geometry": {
        "type": "Point",
        "coordinates": [
          121.0202988,
          14.5578069
        ]
      },
      "id": "node/2071070951"
    },
    {
      "type": "Feature",
      "properties": {
        "@id": "node/2108080173",
        "addr:city": "Pasig",
        "addr:province": "Metro Manila",
        "amenity": "cafe",
        "name": "Countrystyle Donuts"
      },
      "geometry": {
        "type": "Point",
        "coordinates": [
          121.0773531,
          14.5840402
        ]
      },
      "id": "node/2108080173"
    },
    {
      "type": "Feature",
      "properties": {
        "@id": "node/2139050708",
        "addr:city": "Taguig",
        "addr:housename": "Sun Life Center",
        "addr:street": "5th Avenue",
        "addr:street:corner": "Rizal Drive",
        "amenity": "cafe",
        "branch": "Sun Life Center",
        "name": "Starbucks"
      },
      "geometry": {
        "type": "Point",
        "coordinates": [
          121.0463648,
          14.5481436
        ]
      },
      "id": "node/2139050708"
    },
    {
      "type": "Feature",
      "properties": {
        "@id": "node/2139050726",
        "addr:city": "Taguig",
        "addr:housename": "Net Lima",
        "addr:street": "5th Avenue",
        "addr:street:corner": "26th Street",
        "amenity": "cafe",
        "branch": "Net Lima",
        "name": "The Coffee Bean & Tea Leaf",
        "name:abbr": "CBTL"
      },
      "geometry": {
        "type": "Point",
        "coordinates": [
          121.0467349,
          14.5492903
        ]
      },
      "id": "node/2139050726"
    },
    {
      "type": "Feature",
      "properties": {
        "@id": "node/2139634806",
        "addr:city": "Makati",
        "addr:housename": "Glorietta 2",
        "addr:street": "Palm Drive",
        "amenity": "cafe",
        "name": "The Coffee Bean & Tea Leaf",
        "name:abbr": "CBTL"
      },
      "geometry": {
        "type": "Point",
        "coordinates": [
          121.0246758,
          14.5507735
        ]
      },
      "id": "node/2139634806"
    },
    {
      "type": "Feature",
      "properties": {
        "@id": "node/2159712155",
        "addr:city": "Taguig",
        "addr:housename": "Serendra",
        "addr:street": "McKinley Parkway",
        "amenity": "cafe",
        "name": "Kape Isla"
      },
      "geometry": {
        "type": "Point",
        "coordinates": [
          121.0544133,
          14.5492299
        ]
      },
      "id": "node/2159712155"
    },
    {
      "type": "Feature",
      "properties": {
        "@id": "node/2187192141",
        "addr:city": "Taguig",
        "addr:housename": "Serendra",
        "addr:street": "11th Avenue",
        "amenity": "cafe",
        "name": "Larry's Café Bar",
        "opening_hours": "Mo-Su 07:00-23:00",
        "phone": "+632 856 0527;+63948 206 8347"
      },
      "geometry": {
        "type": "Point",
        "coordinates": [
          121.0538987,
          14.5497937
        ]
      },
      "id": "node/2187192141"
    },
    {
      "type": "Feature",
      "properties": {
        "@id": "node/2187478400",
        "addr:city": "Taguig",
        "addr:housename": "Serendra",
        "addr:street": "McKinley Parkway",
        "amenity": "cafe",
        "name": "Cacao"
      },
      "geometry": {
        "type": "Point",
        "coordinates": [
          121.0543847,
          14.5496702
        ]
      },
      "id": "node/2187478400"
    },
    {
      "type": "Feature",
      "properties": {
        "@id": "node/2259916339",
        "addr:city": "Taguig",
        "addr:housename": "Net Lima",
        "addr:street": "4th Avenue",
        "addr:street:corner": "26th Street",
        "amenity": "cafe",
        "cuisine": "international",
        "internet_access": "yes",
        "name": "Wildflour",
        "opening_hours": "Mo-Sa 06:00-24:00;Su 06:00-18:00",
        "outdoor_seating": "yes"
      },
      "geometry": {
        "type": "Point",
        "coordinates": [
          121.0462879,
          14.5494302
        ]
      },
      "id": "node/2259916339"
    },
    {
      "type": "Feature",
      "properties": {
        "@id": "node/2310920980",
        "addr:city": "Taguig",
        "addr:housename": "Fort Pointe",
        "addr:street": "28th Street",
        "amenity": "cafe",
        "name": "Figaro Coffee"
      },
      "geometry": {
        "type": "Point",
        "coordinates": [
          121.0480827,
          14.5500174
        ]
      },
      "id": "node/2310920980"
    },
    {
      "type": "Feature",
      "properties": {
        "@id": "node/2310921028",
        "addr:city": "Taguig",
        "addr:housename": "Fort Pointe",
        "addr:street": "28th Street",
        "amenity": "cafe",
        "name": "100 Miles Cafe"
      },
      "geometry": {
        "type": "Point",
        "coordinates": [
          121.0481009,
          14.5499791
        ]
      },
      "id": "node/2310921028"
    },
    {
      "type": "Feature",
      "properties": {
        "@id": "node/2323983034",
        "amenity": "cafe",
        "name": "Mister Donut"
      },
      "geometry": {
        "type": "Point",
        "coordinates": [
          120.9998685,
          14.5365022
        ]
      },
      "id": "node/2323983034"
    },
    {
      "type": "Feature",
      "properties": {
        "@id": "node/2323983038",
        "amenity": "cafe",
        "name": "Dunkin' Donuts"
      },
      "geometry": {
        "type": "Point",
        "coordinates": [
          121.0011538,
          14.537211
        ]
      },
      "id": "node/2323983038"
    },
    {
      "type": "Feature",
      "properties": {
        "@id": "node/2370335739",
        "amenity": "cafe",
        "name": "Tokyo Bubble Tea"
      },
      "geometry": {
        "type": "Point",
        "coordinates": [
          121.0447362,
          14.5533954
        ]
      },
      "id": "node/2370335739"
    },
    {
      "type": "Feature",
      "properties": {
        "@id": "node/2370335743",
        "addr:city": "Taguig",
        "addr:housename": "Net Lima",
        "addr:street": "4th Avenue",
        "addr:street:corner": "26th Street",
        "amenity": "cafe",
        "name": "The Farmacy"
      },
      "geometry": {
        "type": "Point",
        "coordinates": [
          121.0463451,
          14.5496097
        ]
      },
      "id": "node/2370335743"
    },
    {
      "type": "Feature",
      "properties": {
        "@id": "node/2384533209",
        "addr:city": "Makati",
        "addr:housename": "Glorietta",
        "addr:street": "East",
        "addr:street:corner": "Palm Drive",
        "amenity": "cafe",
        "name": "J.Co Donuts & Coffee"
      },
      "geometry": {
        "type": "Point",
        "coordinates": [
          121.0258632,
          14.5500302
        ]
      },
      "id": "node/2384533209"
    },
    {
      "type": "Feature",
      "properties": {
        "@id": "node/2389007515",
        "addr:city": "Makati",
        "addr:housename": "Glorietta 4",
        "addr:street": "East",
        "addr:street:corner": "Courtyard Drive",
        "amenity": "cafe",
        "name": "Happy Lemon"
      },
      "geometry": {
        "type": "Point",
        "coordinates": [
          121.0264027,
          14.5504437
        ]
      },
      "id": "node/2389007515"
    },
    {
      "type": "Feature",
      "properties": {
        "@id": "node/2394630988",
        "addr:city": "Manila",
        "addr:province": "Metro Manila",
        "amenity": "cafe",
        "internet_access": "yes",
        "name": "Seattle's Best Coffee"
      },
      "geometry": {
        "type": "Point",
        "coordinates": [
          120.9952252,
          14.5630799
        ]
      },
      "id": "node/2394630988"
    },
    {
      "type": "Feature",
      "properties": {
        "@id": "node/2394631510",
        "addr:city": "Manila",
        "addr:province": "Metro Manila",
        "amenity": "cafe",
        "internet_access": "yes",
        "name": "Coffee Bean"
      },
      "geometry": {
        "type": "Point",
        "coordinates": [
          120.9925652,
          14.5665572
        ]
      },
      "id": "node/2394631510"
    },
    {
      "type": "Feature",
      "properties": {
        "@id": "node/2394631557",
        "addr:city": "Manila",
        "addr:province": "Metro Manila",
        "amenity": "cafe",
        "name": "Mr Brown's"
      },
      "geometry": {
        "type": "Point",
        "coordinates": [
          120.9968039,
          14.5656106
        ]
      },
      "id": "node/2394631557"
    },
    {
      "type": "Feature",
      "properties": {
        "@id": "node/2423890122",
        "addr:city": "Makati",
        "addr:housename": "Greenbelt 5",
        "addr:street": "Legazpi",
        "amenity": "cafe",
        "name": "The Coffee Bean & Tea Leaf"
      },
      "geometry": {
        "type": "Point",
        "coordinates": [
          121.0206705,
          14.5525028
        ]
      },
      "id": "node/2423890122"
    },
    {
      "type": "Feature",
      "properties": {
        "@id": "node/2469468544",
        "addr:city": "Pasig",
        "addr:housename": "Eton Emerald Lofts",
        "addr:province": "Metro Manila",
        "addr:street": "F. Ortigas Jr. Road",
        "addr:street:corner": "Garnet Road",
        "amenity": "cafe",
        "brand": "Chatime",
        "brand:en": "Chatime",
        "brand:wikidata": "Q16829306",
        "brand:wikipedia": "en:Chatime",
        "brand:zh": "日出茶太",
        "cuisine": "bubble_tea",
        "name": "Chatime",
        "name:en": "Chatime",
        "name:zh": "日出茶太",
        "takeaway": "yes"
      },
      "geometry": {
        "type": "Point",
        "coordinates": [
          121.0623234,
          14.5884686
        ]
      },
      "id": "node/2469468544"
    },
    {
      "type": "Feature",
      "properties": {
        "@id": "node/2490439618",
        "amenity": "cafe",
        "cuisine": "Taiwanese_milk_tea and noodle",
        "internet_access": "wlan",
        "name": "My Tea",
        "note": "Brewed tea"
      },
      "geometry": {
        "type": "Point",
        "coordinates": [
          121.0449804,
          14.5541223
        ]
      },
      "id": "node/2490439618"
    },
    {
      "type": "Feature",
      "properties": {
        "@id": "node/2523072757",
        "addr:city": "Makati",
        "amenity": "cafe",
        "name": "Cafe Breton"
      },
      "geometry": {
        "type": "Point",
        "coordinates": [
          121.0171718,
          14.5388217
        ]
      },
      "id": "node/2523072757"
    },
    {
      "type": "Feature",
      "properties": {
        "@id": "node/2532994579",
        "addr:city": "Makati",
        "addr:housename": "Shell",
        "addr:street": "Epifanio de los Santos Avenue",
        "addr:street:corner": "McKinley Road",
        "amenity": "cafe",
        "brand": "Mister Donut",
        "brand:wikipedia": "en:Mister Donut",
        "name": "Dunkin' Donuts"
      },
      "geometry": {
        "type": "Point",
        "coordinates": [
          121.0301646,
          14.5499522
        ]
      },
      "id": "node/2532994579"
    },
    {
      "type": "Feature",
      "properties": {
        "@id": "node/2543985182",
        "addr:city": "Makati",
        "addr:housename": "OPL Building",
        "addr:postcode": "1229",
        "addr:street": "Carlos Palanca",
        "addr:street:corner": "Dela Rosa",
        "amenity": "cafe",
        "branch": "Dela Rosa",
        "brand": "Seattle's Best Coffee",
        "brand:facebook": "https://www.facebook.com/seattlesbestcoffeephilippines",
        "brand:website": "http://seattlesbest.com.ph/",
        "brand:wikidata": "Q766329",
        "brand:wikipedia": "en:Seattle's Best Coffee",
        "level": "0",
        "name": "Seattle's Best Coffee",
        "opening_hours": "06:00-24:00",
        "payment:cash": "yes"
      },
      "geometry": {
        "type": "Point",
        "coordinates": [
          121.0197927,
          14.5560154
        ]
      },
      "id": "node/2543985182"
    },
    {
      "type": "Feature",
      "properties": {
        "@id": "node/2556174813",
        "addr:city": "Makati",
        "addr:housename": "Glorietta 2",
        "addr:street": "Palm Drive",
        "amenity": "cafe",
        "name": "Caffe Pascucci Shop"
      },
      "geometry": {
        "type": "Point",
        "coordinates": [
          121.0244572,
          14.5510336
        ]
      },
      "id": "node/2556174813"
    },
    {
      "type": "Feature",
      "properties": {
        "@id": "node/2556174816",
        "addr:city": "Makati",
        "addr:street": "Palm Drive",
        "addr:street:corner": "West",
        "amenity": "cafe",
        "name": "Mentoré Coffee+Bar By UCC"
      },
      "geometry": {
        "type": "Point",
        "coordinates": [
          121.023557,
          14.5511701
        ]
      },
      "id": "node/2556174816"
    },
    {
      "type": "Feature",
      "properties": {
        "@id": "node/2556174818",
        "addr:city": "Makati",
        "addr:housename": "The Residences at Greenbelt",
        "addr:street": "Esperanza",
        "addr:street:corner": "Greenbelt Drive",
        "amenity": "cafe",
        "name": "The Coffee Bean & Tea Leaf"
      },
      "geometry": {
        "type": "Point",
        "coordinates": [
          121.0205509,
          14.5514185
        ]
      },
      "id": "node/2556174818"
    },
    {
      "type": "Feature",
      "properties": {
        "@id": "node/2559085604",
        "addr:city": "Mandaluyong",
        "addr:housename": "The Portal",
        "addr:province": "Metro Manila",
        "addr:street": "Mayflower",
        "amenity": "cafe",
        "name": "Serenitea"
      },
      "geometry": {
        "type": "Point",
        "coordinates": [
          121.0543762,
          14.5783573
        ]
      },
      "id": "node/2559085604"
    },
    {
      "type": "Feature",
      "properties": {
        "@id": "node/2559085606",
        "addr:city": "Mandaluyong",
        "addr:housename": "The Portal",
        "addr:province": "Metro Manila",
        "addr:street": "Mayflower",
        "amenity": "cafe",
        "name": "Y-Tree Milk Tea"
      },
      "geometry": {
        "type": "Point",
        "coordinates": [
          121.0546034,
          14.5785954
        ]
      },
      "id": "node/2559085606"
    },
    {
      "type": "Feature",
      "properties": {
        "@id": "node/2559842549",
        "addr:city": "Mandaluyong",
        "addr:street": "Luna Mencias",
        "amenity": "cafe",
        "name": "Organico Gourmet",
        "opening_hours": "10:30-21:00"
      },
      "geometry": {
        "type": "Point",
        "coordinates": [
          121.0382288,
          14.5903933
        ]
      },
      "id": "node/2559842549"
    },
    {
      "type": "Feature",
      "properties": {
        "@id": "node/2597823069",
        "addr:city": "Pasig",
        "addr:housename": "Metrowalk",
        "addr:province": "Metro Manila",
        "addr:street": "Meralco Avenue",
        "amenity": "cafe",
        "name": "Moonleaf"
      },
      "geometry": {
        "type": "Point",
        "coordinates": [
          121.0646351,
          14.587128
        ]
      },
      "id": "node/2597823069"
    },
    {
      "type": "Feature",
      "properties": {
        "@id": "node/2636966646",
        "addr:city": "Pasay",
        "addr:housename": "Building L, Blue Bay Walk",
        "addr:postcode": "1300",
        "addr:street": "Diosdado Macapagal Boulevard",
        "addr:unit": "108",
        "amenity": "cafe",
        "name": "Starbucks"
      },
      "geometry": {
        "type": "Point",
        "coordinates": [
          120.9892517,
          14.5372677
        ]
      },
      "id": "node/2636966646"
    },
    {
      "type": "Feature",
      "properties": {
        "@id": "node/2639211810",
        "amenity": "cafe",
        "cuisine": "coffee_shop",
        "name": "Starbucks"
      },
      "geometry": {
        "type": "Point",
        "coordinates": [
          121.0481094,
          14.5552104
        ]
      },
      "id": "node/2639211810"
    },
    {
      "type": "Feature",
      "properties": {
        "@id": "node/2655677192",
        "amenity": "cafe",
        "name": "Iko's Breads & Cakes"
      },
      "geometry": {
        "type": "Point",
        "coordinates": [
          121.0604035,
          14.5722272
        ]
      },
      "id": "node/2655677192"
    },
    {
      "type": "Feature",
      "properties": {
        "@id": "node/2655955664",
        "addr:city": "Makati",
        "addr:housenumber": "106",
        "addr:postcode": "1229",
        "addr:street": "Esteban",
        "amenity": "cafe",
        "drink:espresso": "served",
        "drink:filter_coffee": "served",
        "email": "hello@yardstickcoffee.com",
        "microroasting": "yes",
        "name": "Yardstick Coffee",
        "payment:bitcoin": "yes",
        "phone": "+632 845 0073;+63 917 723 6079",
        "website": "http://yardstickcoffee.com/"
      },
      "geometry": {
        "type": "Point",
        "coordinates": [
          121.0172611,
          14.5568152
        ]
      },
      "id": "node/2655955664"
    },
    {
      "type": "Feature",
      "properties": {
        "@id": "node/2695870338",
        "addr:city": "Makati",
        "addr:floor": "G/F",
        "addr:housename": "Dela Rosa Carpark 1",
        "addr:street": "Dela Rosa",
        "amenity": "cafe",
        "level": "0",
        "name": "Dakasi"
      },
      "geometry": {
        "type": "Point",
        "coordinates": [
          121.0219705,
          14.5549876
        ]
      },
      "id": "node/2695870338"
    },
    {
      "type": "Feature",
      "properties": {
        "@id": "node/2711321118",
        "addr:city": "Mandaluyong",
        "addr:street": "Pioneer",
        "amenity": "cafe",
        "brand": "Starbucks",
        "brand:wikidata": "Q37158",
        "brand:wikipedia": "en:Starbucks",
        "cuisine": "coffee_shop",
        "name": "Starbucks",
        "official_name": "Starbucks Coffee",
        "takeaway": "yes"
      },
      "geometry": {
        "type": "Point",
        "coordinates": [
          121.0482601,
          14.5715736
        ]
      },
      "id": "node/2711321118"
    },
    {
      "type": "Feature",
      "properties": {
        "@id": "node/2721128117",
        "addr:city": "Mandaluyong",
        "addr:housename": "The Portal",
        "addr:province": "Metro Manila",
        "addr:street": "United Avenue",
        "amenity": "cafe",
        "brand": "Mister Donut",
        "brand:wikipedia": "en:Mister Donut",
        "cuisine": "donut",
        "name": "Dunkin' Donuts"
      },
      "geometry": {
        "type": "Point",
        "coordinates": [
          121.0534553,
          14.5788359
        ]
      },
      "id": "node/2721128117"
    },
    {
      "type": "Feature",
      "properties": {
        "@id": "node/2751163462",
        "addr:city": "Makati",
        "addr:floor": "2/F",
        "addr:housename": "Glorietta 5",
        "addr:street": "North",
        "addr:street:corner": "East",
        "amenity": "cafe",
        "brand": "Starbucks",
        "brand:wikidata": "Q37158",
        "brand:wikipedia": "en:Starbucks",
        "cuisine": "coffee_shop",
        "level": "1",
        "name": "Starbucks"
      },
      "geometry": {
        "type": "Point",
        "coordinates": [
          121.0270022,
          14.5517392
        ]
      },
      "id": "node/2751163462"
    },
    {
      "type": "Feature",
      "properties": {
        "@id": "node/2763409345",
        "addr:city": "Makati",
        "addr:housename": "V Corporate Center",
        "addr:housenumber": "125",
        "addr:postcode": "1227",
        "addr:street": "L.P. Leviste St.",
        "amenity": "cafe",
        "cuisine": "coffee_shop",
        "name": "Toby's Estate"
      },
      "geometry": {
        "type": "Point",
        "coordinates": [
          121.0250089,
          14.5603707
        ]
      },
      "id": "node/2763409345"
    },
    {
      "type": "Feature",
      "properties": {
        "@id": "node/2773050844",
        "amenity": "cafe",
        "cuisine": "asian",
        "internet_access": "no",
        "name": "Pan De Manila"
      },
      "geometry": {
        "type": "Point",
        "coordinates": [
          121.0499909,
          14.5710382
        ]
      },
      "id": "node/2773050844"
    },
    {
      "type": "Feature",
      "properties": {
        "@id": "node/2785958705",
        "addr:city": "Makati",
        "addr:floor": "G/F",
        "addr:housename": "Greenbelt 3",
        "addr:street": "Esperanza",
        "addr:street:corner": "Makati Avenue",
        "amenity": "cafe",
        "level": "0",
        "name": "Café Breton"
      },
      "geometry": {
        "type": "Point",
        "coordinates": [
          121.0217162,
          14.5519473
        ]
      },
      "id": "node/2785958705"
    },
    {
      "type": "Feature",
      "properties": {
        "@id": "node/2785958709",
        "addr:city": "Makati",
        "addr:housename": "Glorietta 4",
        "addr:street": "East",
        "addr:street:corner": "Courtyard Drive",
        "amenity": "cafe",
        "cuisine": "japanese",
        "name": "MochiCream Café"
      },
      "geometry": {
        "type": "Point",
        "coordinates": [
          121.026563,
          14.5505843
        ]
      },
      "id": "node/2785958709"
    },
    {
      "type": "Feature",
      "properties": {
        "@id": "node/2785958712",
        "addr:city": "Makati",
        "addr:floor": "G/F",
        "addr:housename": "Greenbelt 3",
        "addr:street": "Esperanza",
        "addr:street:corner": "Makati Avenue",
        "amenity": "cafe",
        "level": "0",
        "name": "Single Origin"
      },
      "geometry": {
        "type": "Point",
        "coordinates": [
          121.0214536,
          14.5520016
        ]
      },
      "id": "node/2785958712"
    },
    {
      "type": "Feature",
      "properties": {
        "@id": "node/2825660281",
        "amenity": "cafe",
        "name": "Papa John's"
      },
      "geometry": {
        "type": "Point",
        "coordinates": [
          121.0011891,
          14.5251016
        ]
      },
      "id": "node/2825660281"
    },
    {
      "type": "Feature",
      "properties": {
        "@id": "node/2825660282",
        "amenity": "cafe",
        "name": "Vin-Vin's Cafe"
      },
      "geometry": {
        "type": "Point",
        "coordinates": [
          121.0012699,
          14.5251246
        ]
      },
      "id": "node/2825660282"
    },
    {
      "type": "Feature",
      "properties": {
        "@id": "node/2825679145",
        "amenity": "cafe",
        "name": "Seattle's Best Coffee"
      },
      "geometry": {
        "type": "Point",
        "coordinates": [
          121.0012996,
          14.5252426
        ]
      },
      "id": "node/2825679145"
    },
    {
      "type": "Feature",
      "properties": {
        "@id": "node/2825679146",
        "amenity": "cafe",
        "name": "Mister Donut"
      },
      "geometry": {
        "type": "Point",
        "coordinates": [
          121.001374,
          14.525007
        ]
      },
      "id": "node/2825679146"
    },
    {
      "type": "Feature",
      "properties": {
        "@id": "node/2930421999",
        "addr:city": "Taguig",
        "addr:street": "Campus Avenue",
        "amenity": "cafe",
        "cuisine": "coffee_shop",
        "internet_access": "yes",
        "name": "Starbucks",
        "opening_hours": "07:00-01:30"
      },
      "geometry": {
        "type": "Point",
        "coordinates": [
          121.0527215,
          14.5306457
        ]
      },
      "id": "node/2930421999"
    },
    {
      "type": "Feature",
      "properties": {
        "@id": "node/2941884739",
        "amenity": "cafe",
        "name": "Bites Bistro"
      },
      "geometry": {
        "type": "Point",
        "coordinates": [
          121.0393725,
          14.5576261
        ]
      },
      "id": "node/2941884739"
    },
    {
      "type": "Feature",
      "properties": {
        "@id": "node/3052245233",
        "addr:city": "Makati",
        "addr:floor": "G/F",
        "addr:housename": "Greenbelt 1",
        "addr:street": "Legazpi",
        "amenity": "cafe",
        "cuisine": "donut",
        "level": "0",
        "name": "Dunkin' Donuts"
      },
      "geometry": {
        "type": "Point",
        "coordinates": [
          121.0205221,
          14.5535643
        ]
      },
      "id": "node/3052245233"
    },
    {
      "type": "Feature",
      "properties": {
        "@id": "node/3074414135",
        "amenity": "cafe",
        "name": "Kai Cha Milk Tea"
      },
      "geometry": {
        "type": "Point",
        "coordinates": [
          121.0136564,
          14.5814782
        ]
      },
      "id": "node/3074414135"
    },
    {
      "type": "Feature",
      "properties": {
        "@id": "node/3074540270",
        "amenity": "cafe",
        "internet_access": "yes",
        "name": "Liyah Kaffea",
        "opening_hours": "Mo-Su 7:00-21:00"
      },
      "geometry": {
        "type": "Point",
        "coordinates": [
          121.0115695,
          14.5811945
        ]
      },
      "id": "node/3074540270"
    },
    {
      "type": "Feature",
      "properties": {
        "@id": "node/3138813329",
        "addr:city": "Pasay",
        "addr:housename": "Building L, Blue Bay Walk",
        "addr:postcode": "1300",
        "addr:street": "Diosdado Macapagal Boulevard",
        "addr:unit": "107",
        "amenity": "cafe",
        "name": "J.CO Donuts & Coffee",
        "name:ko": "블루베이워크"
      },
      "geometry": {
        "type": "Point",
        "coordinates": [
          120.9892457,
          14.537314
        ]
      },
      "id": "node/3138813329"
    },
    {
      "type": "Feature",
      "properties": {
        "@id": "node/3138814029",
        "addr:city": "Pasay",
        "addr:housename": "Blue Bay Walk",
        "addr:postcode": "1300",
        "addr:street": "Diosdado Macapagal Boulevard",
        "addr:unit": "106",
        "amenity": "cafe",
        "name": "UCC Clockwork"
      },
      "geometry": {
        "type": "Point",
        "coordinates": [
          120.9894639,
          14.5373056
        ]
      },
      "id": "node/3138814029"
    },
    {
      "type": "Feature",
      "properties": {
        "@id": "node/3148705745",
        "addr:city": "Makati",
        "addr:housenumber": "Joya Lofts and Towers",
        "addr:street": "Joya Drive",
        "amenity": "cafe",
        "name": "Refinery",
        "payment:bitcoin": "yes",
        "phone": "+632 781 0344",
        "website": "https://www.facebook.com/RefineryPH"
      },
      "geometry": {
        "type": "Point",
        "coordinates": [
          121.0376751,
          14.564844
        ]
      },
      "id": "node/3148705745"
    },
    {
      "type": "Feature",
      "properties": {
        "@id": "node/3149109436",
        "addr:city": "Makati",
        "addr:floor": "G/F",
        "addr:housename": "Signa Residences",
        "addr:postcode": "1227",
        "addr:street": "V. A. Rufino",
        "addr:street:corner": "Valero",
        "amenity": "cafe",
        "level": "0",
        "name": "Starbucks Reserve"
      },
      "geometry": {
        "type": "Point",
        "coordinates": [
          121.0193001,
          14.5591072
        ]
      },
      "id": "node/3149109436"
    },
    {
      "type": "Feature",
      "properties": {
        "@id": "node/3149117029",
        "addr:city": "Makati",
        "addr:floor": "G/F",
        "addr:housename": "Antel Corporate Center",
        "addr:housenumber": "121",
        "addr:street": "Valero",
        "amenity": "cafe",
        "level": "0",
        "name": "Teaberi"
      },
      "geometry": {
        "type": "Point",
        "coordinates": [
          121.0199085,
          14.5589294
        ]
      },
      "id": "node/3149117029"
    },
    {
      "type": "Feature",
      "properties": {
        "@id": "node/3227938493",
        "addr:city": "Taguig",
        "addr:housename": "Eight Forbes Town Road",
        "addr:street": "Forbes Town Road",
        "amenity": "cafe",
        "internet_access": "wlan",
        "name": "Starbucks Coffee"
      },
      "geometry": {
        "type": "Point",
        "coordinates": [
          121.0440782,
          14.5509068
        ]
      },
      "id": "node/3227938493"
    },
    {
      "type": "Feature",
      "properties": {
        "@id": "node/3233818697",
        "addr:city": "Taguig",
        "addr:housename": "Eight Forbes Town Road",
        "addr:street": "Forbes Town Road",
        "amenity": "cafe",
        "cuisine": "coffee_shop",
        "internet_access": "yes",
        "name": "J.CO Donuts & Coffee"
      },
      "geometry": {
        "type": "Point",
        "coordinates": [
          121.0440528,
          14.5507519
        ]
      },
      "id": "node/3233818697"
    },
    {
      "type": "Feature",
      "properties": {
        "@id": "node/3233830003",
        "addr:city": "Fort Bonifacio",
        "addr:street": "9th Avenue",
        "amenity": "cafe",
        "name": "Circus Cafe"
      },
      "geometry": {
        "type": "Point",
        "coordinates": [
          121.0508926,
          14.5497708
        ]
      },
      "id": "node/3233830003"
    },
    {
      "type": "Feature",
      "properties": {
        "@id": "node/3233877660",
        "amenity": "cafe",
        "name": "Susabelle Serenity Bakeshop"
      },
      "geometry": {
        "type": "Point",
        "coordinates": [
          121.0436988,
          14.5530846
        ]
      },
      "id": "node/3233877660"
    },
    {
      "type": "Feature",
      "properties": {
        "@id": "node/3237575208",
        "addr:city": "Taguig",
        "addr:street": "5th Ave cor. 30th Street",
        "amenity": "cafe",
        "name": "TWG Tea"
      },
      "geometry": {
        "type": "Point",
        "coordinates": [
          121.0482211,
          14.5521552
        ]
      },
      "id": "node/3237575208"
    },
    {
      "type": "Feature",
      "properties": {
        "@id": "node/3248762211",
        "addr:city": "Makati",
        "addr:housenumber": "6788",
        "addr:street": "Ayala Avenue",
        "amenity": "cafe",
        "branch": "6788 Ayala Ave",
        "name": "Starbucks",
        "name:abbr": "Starbucks",
        "short_name": "Starbucks",
        "website": "https://www.starbucks.com/store/5484/ph/6788-ayala-ave/6788-ayala-avenue-ground-floor-makati-city-00"
      },
      "geometry": {
        "type": "Point",
        "coordinates": [
          121.017567,
          14.558822
        ]
      },
      "id": "node/3248762211"
    },
    {
      "type": "Feature",
      "properties": {
        "@id": "node/3248922648",
        "addr:city": "Taguig",
        "addr:housename": "SM Aura",
        "amenity": "cafe",
        "name": "Starbucks"
      },
      "geometry": {
        "type": "Point",
        "coordinates": [
          121.0545609,
          14.5469896
        ]
      },
      "id": "node/3248922648"
    },
    {
      "type": "Feature",
      "properties": {
        "@id": "node/3254806290",
        "addr:city": "Taguig",
        "addr:housename": "NAC Tower",
        "addr:street": "32nd Street",
        "addr:street:corner": "8th Avenue",
        "amenity": "cafe",
        "name": "Luna Specialty Coffee"
      },
      "geometry": {
        "type": "Point",
        "coordinates": [
          121.0512968,
          14.5530368
        ]
      },
      "id": "node/3254806290"
    },
    {
      "type": "Feature",
      "properties": {
        "@id": "node/3266669761",
        "addr:city": "Makati",
        "addr:housename": "V Corporate Center",
        "addr:housenumber": "125",
        "addr:postcode": "1227",
        "addr:street": "L.P. Leviste St.",
        "amenity": "cafe",
        "name": "Wildflour"
      },
      "geometry": {
        "type": "Point",
        "coordinates": [
          121.0248127,
          14.5602637
        ]
      },
      "id": "node/3266669761"
    },
    {
      "type": "Feature",
      "properties": {
        "@id": "node/3306913165",
        "addr:city": "Makati",
        "addr:housename": "Jazz Mall",
        "addr:postcode": "1200",
        "addr:street": "Jupiter",
        "addr:street:corner": "Nicanor T. Garcia",
        "amenity": "cafe",
        "name": "Darwin's"
      },
      "geometry": {
        "type": "Point",
        "coordinates": [
          121.0220136,
          14.5635405
        ]
      },
      "id": "node/3306913165"
    },
    {
      "type": "Feature",
      "properties": {
        "@id": "node/3306913166",
        "addr:city": "Makati",
        "addr:housename": "Jazz Mall",
        "addr:postcode": "1200",
        "addr:street": "Jupiter",
        "addr:street:corner": "Nicanor T. Garcia",
        "amenity": "cafe",
        "brand": "Starbucks",
        "brand:wikidata": "Q37158",
        "brand:wikipedia": "en:Starbucks",
        "cuisine": "coffee_shop",
        "name": "Starbucks",
        "official_name": "Starbucks Coffee",
        "takeaway": "yes"
      },
      "geometry": {
        "type": "Point",
        "coordinates": [
          121.0220492,
          14.5636305
        ]
      },
      "id": "node/3306913166"
    },
    {
      "type": "Feature",
      "properties": {
        "@id": "node/3306913178",
        "addr:city": "Makati",
        "addr:housename": "Jazz Mall",
        "addr:postcode": "1200",
        "addr:street": "Jupiter",
        "addr:street:corner": "Nicanor T. Garcia",
        "amenity": "cafe",
        "name": "The Coffee Bean & Tea Leaf"
      },
      "geometry": {
        "type": "Point",
        "coordinates": [
          121.0218711,
          14.5631804
        ]
      },
      "id": "node/3306913178"
    },
    {
      "type": "Feature",
      "properties": {
        "@id": "node/3355763193",
        "addr:city": "Pasig",
        "addr:street": "East Capitol Drive",
        "addr:street:corner": "Santa Rosa",
        "amenity": "cafe",
        "cuisine": "coffee_shop",
        "name": "Epic Coffee Roastery"
      },
      "geometry": {
        "type": "Point",
        "coordinates": [
          121.0606593,
          14.5721404
        ]
      },
      "id": "node/3355763193"
    },
    {
      "type": "Feature",
      "properties": {
        "@id": "node/3355763493",
        "addr:city": "Pasig",
        "addr:floor": "G/F",
        "addr:housename": "Estancia",
        "addr:postcode": "1605",
        "addr:street": "Camino Verde Road",
        "amenity": "cafe",
        "brand": "The Coffee Bean & Tea Leaf",
        "brand:wikidata": "Q1141384",
        "brand:wikipedia": "en:The Coffee Bean & Tea Leaf",
        "cuisine": "coffee_shop",
        "level": "0",
        "name": "The Coffee Bean & Tea Leaf",
        "takeaway": "yes"
      },
      "geometry": {
        "type": "Point",
        "coordinates": [
          121.0635289,
          14.5763938
        ]
      },
      "id": "node/3355763493"
    },
    {
      "type": "Feature",
      "properties": {
        "@id": "node/3485590737",
        "amenity": "cafe",
        "name": "Ice Cream Store"
      },
      "geometry": {
        "type": "Point",
        "coordinates": [
          121.0599594,
          14.5627454
        ]
      },
      "id": "node/3485590737"
    },
    {
      "type": "Feature",
      "properties": {
        "@id": "node/3492379994",
        "addr:city": "Makati",
        "addr:housename": "West Tower, One Rockwell",
        "addr:street": "Rockwell Drive",
        "amenity": "cafe",
        "name": "UCC Café Terrace"
      },
      "geometry": {
        "type": "Point",
        "coordinates": [
          121.0377902,
          14.5634669
        ]
      },
      "id": "node/3492379994"
    },
    {
      "type": "Feature",
      "properties": {
        "@id": "node/3511895187",
        "amenity": "cafe",
        "name": "Manila Polo Club Sports Lounge"
      },
      "geometry": {
        "type": "Point",
        "coordinates": [
          121.0395046,
          14.5435342
        ]
      },
      "id": "node/3511895187"
    },
    {
      "type": "Feature",
      "properties": {
        "@id": "node/3545973793",
        "addr:city": "Makati",
        "addr:housenumber": "Alphaland",
        "addr:postcode": "1203",
        "addr:street": "Ayala Avenue Extension",
        "amenity": "cafe",
        "internet_access": "yes",
        "name": "Coffee Bean And Tea Leaf",
        "smoking": "separated",
        "source": "©AhnBustamante",
        "takeaway": "yes",
        "wheelchair": "yes"
      },
      "geometry": {
        "type": "Point",
        "coordinates": [
          121.0163309,
          14.56246
        ]
      },
      "id": "node/3545973793"
    },
    {
      "type": "Feature",
      "properties": {
        "@id": "node/3552795609",
        "amenity": "cafe",
        "name": "Dunkin Donuts"
      },
      "geometry": {
        "type": "Point",
        "coordinates": [
          120.9999085,
          14.5372837
        ]
      },
      "id": "node/3552795609"
    },
    {
      "type": "Feature",
      "properties": {
        "@id": "node/3570780993",
        "addr:city": "Pasig",
        "addr:housename": "Estancia",
        "addr:postcode": "1605",
        "addr:street": "Camino Verde Road",
        "amenity": "cafe",
        "name": "Craft Coffee Revolution"
      },
      "geometry": {
        "type": "Point",
        "coordinates": [
          121.0627855,
          14.5760732
        ]
      },
      "id": "node/3570780993"
    },
    {
      "type": "Feature",
      "properties": {
        "@id": "node/3588835317",
        "amenity": "cafe",
        "name": "Balay"
      },
      "geometry": {
        "type": "Point",
        "coordinates": [
          120.9946993,
          14.5273063
        ]
      },
      "id": "node/3588835317"
    },
    {
      "type": "Feature",
      "properties": {
        "@id": "node/3614234332",
        "addr:city": "Pasig",
        "addr:housename": "Estancia",
        "addr:postcode": "1605",
        "addr:street": "Camino Verde Road",
        "amenity": "cafe",
        "cuisine": "coffee_shop",
        "name": "Larcy's"
      },
      "geometry": {
        "type": "Point",
        "coordinates": [
          121.0626874,
          14.5758325
        ]
      },
      "id": "node/3614234332"
    },
    {
      "type": "Feature",
      "properties": {
        "@id": "node/3614234338",
        "amenity": "cafe",
        "cuisine": "coffee_shop",
        "name": "UCC Clockwork"
      },
      "geometry": {
        "type": "Point",
        "coordinates": [
          121.0630095,
          14.5756803
        ]
      },
      "id": "node/3614234338"
    },
    {
      "type": "Feature",
      "properties": {
        "@id": "node/3621591893",
        "addr:city": "Pasig",
        "addr:housename": "The Strip",
        "addr:street": "Ortigas Avenue",
        "amenity": "cafe",
        "name": "True Blends"
      },
      "geometry": {
        "type": "Point",
        "coordinates": [
          121.0691814,
          14.5892484
        ]
      },
      "id": "node/3621591893"
    },
    {
      "type": "Feature",
      "properties": {
        "@id": "node/3639163213",
        "addr:city": "Pasig",
        "addr:housename": "Elements @ Rosemarie Building",
        "addr:street": "Pasig Boulevard",
        "addr:street:corner": "Rosemarie Lane",
        "addr:unit": "Unit 3",
        "amenity": "cafe",
        "name": "DyceNDyne",
        "website": "https://www.facebook.com/dycendyne"
      },
      "geometry": {
        "type": "Point",
        "coordinates": [
          121.0659733,
          14.5681986
        ]
      },
      "id": "node/3639163213"
    },
    {
      "type": "Feature",
      "properties": {
        "@id": "node/3645587521",
        "addr:city": "Pasig",
        "addr:housename": "The Sapphire Bloc",
        "addr:postcode": "1605",
        "addr:street": "Sapphire Road",
        "amenity": "cafe",
        "brand": "Starbucks",
        "brand:wikidata": "Q37158",
        "brand:wikipedia": "en:Starbucks",
        "cuisine": "coffee_shop",
        "name": "Starbucks",
        "official_name": "Starbucks Coffee",
        "takeaway": "yes"
      },
      "geometry": {
        "type": "Point",
        "coordinates": [
          121.0629579,
          14.5875654
        ]
      },
      "id": "node/3645587521"
    },
    {
      "type": "Feature",
      "properties": {
        "@id": "node/3646299193",
        "addr:city": "Makati",
        "addr:housename": "Glorietta 4",
        "addr:street": "Courtyard Drive",
        "addr:street:corner": "North",
        "amenity": "cafe",
        "name": "Tim Hortons"
      },
      "geometry": {
        "type": "Point",
        "coordinates": [
          121.0263259,
          14.5513746
        ]
      },
      "id": "node/3646299193"
    },
    {
      "type": "Feature",
      "properties": {
        "@id": "node/3675749878",
        "amenity": "cafe",
        "cuisine": "coffee_shop",
        "name": "Kaffe Krema"
      },
      "geometry": {
        "type": "Point",
        "coordinates": [
          121.0453986,
          14.5496314
        ]
      },
      "id": "node/3675749878"
    },
    {
      "type": "Feature",
      "properties": {
        "@id": "node/3676632656",
        "addr:city": "Taguig",
        "addr:housename": "Eco Tower",
        "addr:street": "32nd Street",
        "addr:street:corner": "9th Avenue",
        "amenity": "cafe",
        "name": "Toby's Estate"
      },
      "geometry": {
        "type": "Point",
        "coordinates": [
          121.0519508,
          14.5527824
        ]
      },
      "id": "node/3676632656"
    },
    {
      "type": "Feature",
      "properties": {
        "@id": "node/3676657941",
        "addr:city": "Makati",
        "addr:housename": "The Columns",
        "addr:street": "Senator Gil Puyat Avenue",
        "addr:street:corner": "Ayala Avenue Extension",
        "amenity": "cafe",
        "level": "0",
        "name": "Moonleaf Tea Shop"
      },
      "geometry": {
        "type": "Point",
        "coordinates": [
          121.0157238,
          14.5618368
        ]
      },
      "id": "node/3676657941"
    },
    {
      "type": "Feature",
      "properties": {
        "@id": "node/3676669697",
        "addr:city": "Taguig",
        "addr:housename": "B:3, Bonifacio High Street",
        "addr:street": "9th Avenue",
        "amenity": "cafe",
        "name": "Sunnies Cafe (u.c.)"
      },
      "geometry": {
        "type": "Point",
        "coordinates": [
          121.0504406,
          14.5510413
        ]
      },
      "id": "node/3676669697"
    },
    {
      "type": "Feature",
      "properties": {
        "@id": "node/3678117064",
        "addr:city": "Makati",
        "addr:housenumber": "134",
        "addr:street": "Legazpi",
        "amenity": "cafe",
        "cuisine": "coffee_shop",
        "drink:espresso": "served",
        "drink:filter_coffee": "served",
        "facebook": "https://www.facebook.com/thecuratorcoffeeandcocktails/",
        "internet_access": "no",
        "name": "The Curator",
        "opening_hours": "Mo-Sa 07:00-02:00, Su 07:00-19:00",
        "phone": "+63 916 3554129",
        "website": "https://www.thecuratorcoffeeandcocktails.com",
        "wheelchair": "no"
      },
      "geometry": {
        "type": "Point",
        "coordinates": [
          121.0181983,
          14.5543777
        ]
      },
      "id": "node/3678117064"
    },
    {
      "type": "Feature",
      "properties": {
        "@id": "node/3680982490",
        "addr:city": "Pasig",
        "addr:housename": "Fun Ranch",
        "addr:province": "Metro Manila",
        "addr:street": "Las Fiestas",
        "amenity": "cafe",
        "level": "0",
        "name": "Urban Grind"
      },
      "geometry": {
        "type": "Point",
        "coordinates": [
          121.0779202,
          14.5872341
        ]
      },
      "id": "node/3680982490"
    },
    {
      "type": "Feature",
      "properties": {
        "@id": "node/3697013225",
        "addr:city": "Makati",
        "addr:housenumber": "7635",
        "addr:street": "Guijo",
        "amenity": "cafe",
        "cuisine": "coffee_shop",
        "email": "hello@restock.ph",
        "internet_access": "no",
        "internet_access:fee": "no",
        "name": "Restock",
        "note": "Intimate cafe right at the end of Guijo.",
        "outdoor_seating": "no",
        "phone": "+63 917 6631011",
        "smoking": "no",
        "source": "Ahn Bustamante date of visit 8/13/2015",
        "takeaway": "yes",
        "website": "http://restock.ph",
        "wheelchair": "no"
      },
      "geometry": {
        "type": "Point",
        "coordinates": [
          121.012731,
          14.565225
        ]
      },
      "id": "node/3697013225"
    },
    {
      "type": "Feature",
      "properties": {
        "@id": "node/3704006025",
        "addr:city": "Pasig",
        "addr:street": "Frontera Drive",
        "amenity": "cafe",
        "cuisine": "donut",
        "name": "Krispy Kreme",
        "opening_hours": "08:00-23:00",
        "smoking": "isolated"
      },
      "geometry": {
        "type": "Point",
        "coordinates": [
          121.0770003,
          14.5851362
        ]
      },
      "id": "node/3704006025"
    },
    {
      "type": "Feature",
      "properties": {
        "@id": "node/3711963878",
        "addr:city": "Pasay",
        "addr:housename": "Heritage Hotel",
        "addr:postcode": "1300",
        "addr:street": "EDSA",
        "addr:street:corner": "Roxas Boulevard",
        "amenity": "cafe",
        "diet:halal": "yes",
        "level": "1",
        "name": "Rivera Cafe",
        "opening_hours": "Mo-Su 06:00-23:00",
        "phone": "+632 8548888"
      },
      "geometry": {
        "type": "Point",
        "coordinates": [
          120.9937559,
          14.5367896
        ]
      },
      "id": "node/3711963878"
    },
    {
      "type": "Feature",
      "properties": {
        "@id": "node/3720061194",
        "amenity": "cafe",
        "brand": "Starbucks",
        "cuisine": "coffee_shop",
        "name": "Starbucks",
        "official_name": "Starbucks Coffee",
        "takeaway": "yes"
      },
      "geometry": {
        "type": "Point",
        "coordinates": [
          121.0163977,
          14.5556898
        ]
      },
      "id": "node/3720061194"
    },
    {
      "type": "Feature",
      "properties": {
        "@id": "node/3721262795",
        "addr:city": "Makati",
        "addr:housename": "Adamson Centre",
        "addr:housenumber": "121",
        "addr:postcode": "1227",
        "addr:street": "L.P. Leviste",
        "amenity": "cafe",
        "name": "Savor Park Cafe"
      },
      "geometry": {
        "type": "Point",
        "coordinates": [
          121.024547,
          14.5601624
        ]
      },
      "id": "node/3721262795"
    },
    {
      "type": "Feature",
      "properties": {
        "@id": "node/3725593326",
        "amenity": "cafe",
        "name": "Infinitea"
      },
      "geometry": {
        "type": "Point",
        "coordinates": [
          121.0260103,
          14.5856191
        ]
      },
      "id": "node/3725593326"
    },
    {
      "type": "Feature",
      "properties": {
        "@id": "node/3730259725",
        "addr:city": "Taguig",
        "addr:floor": "G/F",
        "addr:housename": "Bonifacio Stopover",
        "addr:street": "Rizal Drive",
        "addr:street:corner": "31st Street",
        "amenity": "cafe",
        "level": "0",
        "name": "The Coffee Bean & Tea Leaf",
        "name:abbr": "CBTL",
        "short_name": "CBTL"
      },
      "geometry": {
        "type": "Point",
        "coordinates": [
          121.0461594,
          14.5543968
        ]
      },
      "id": "node/3730259725"
    },
    {
      "type": "Feature",
      "properties": {
        "@id": "node/3730259726",
        "addr:city": "Taguig",
        "addr:floor": "G/F",
        "addr:housename": "Bonifacio Stopover",
        "addr:street": "Rizal Drive",
        "addr:street:corner": "31st Street",
        "amenity": "cafe",
        "cuisine": "coffee_shop",
        "level": "0",
        "name": "Starbucks Coffee",
        "name:abbr": "Starbucks",
        "short_name": "Starbucks"
      },
      "geometry": {
        "type": "Point",
        "coordinates": [
          121.0456872,
          14.554318
        ]
      },
      "id": "node/3730259726"
    },
    {
      "type": "Feature",
      "properties": {
        "@id": "node/3736540223",
        "addr:city": "Pasig",
        "addr:housename": "The Pearl Place",
        "addr:street": "Pearl Drive",
        "addr:street:corner": "Gold Loop",
        "amenity": "cafe",
        "name": "Alice Tea Salon",
        "outdoor_seating": "no"
      },
      "geometry": {
        "type": "Point",
        "coordinates": [
          121.0595629,
          14.579312
        ]
      },
      "id": "node/3736540223"
    },
    {
      "type": "Feature",
      "properties": {
        "@id": "node/3739336357",
        "addr:city": "Pasig",
        "addr:housenumber": "16",
        "addr:street": "United Street",
        "amenity": "cafe",
        "cuisine": "Filipino_Delicacies_and_Coffee_Shop",
        "name": "KKP"
      },
      "geometry": {
        "type": "Point",
        "coordinates": [
          121.0592617,
          14.5740681
        ]
      },
      "id": "node/3739336357"
    },
    {
      "type": "Feature",
      "properties": {
        "@id": "node/3745067855",
        "amenity": "cafe",
        "cuisine": "regional",
        "internet_access": "yes",
        "name": "Gandiva Cafe",
        "name:it": "Gandiva"
      },
      "geometry": {
        "type": "Point",
        "coordinates": [
          121.0633312,
          14.5839951
        ]
      },
      "id": "node/3745067855"
    },
    {
      "type": "Feature",
      "properties": {
        "@id": "node/3778717672",
        "addr:city": "Mandaluyong",
        "addr:housename": "Building B, Megamall",
        "addr:street": "Doña Julia Vargas Avenue",
        "addr:street:corner": "EDSA",
        "amenity": "cafe",
        "level": "0",
        "name": "Seattle's Best Coffee"
      },
      "geometry": {
        "type": "Point",
        "coordinates": [
          121.0576039,
          14.5841572
        ]
      },
      "id": "node/3778717672"
    },
    {
      "type": "Feature",
      "properties": {
        "@id": "node/3778717673",
        "addr:city": "Mandaluyong",
        "addr:housename": "Building A, Megamall",
        "addr:street": "Doña Julia Vargas Avenue",
        "addr:street:corner": "EDSA",
        "amenity": "cafe",
        "brand": "Starbucks",
        "brand:wikidata": "Q37158",
        "brand:wikipedia": "en:Starbucks",
        "cuisine": "coffee_shop",
        "level": "0",
        "name": "Starbucks",
        "official_name": "Starbucks Coffee",
        "takeaway": "yes"
      },
      "geometry": {
        "type": "Point",
        "coordinates": [
          121.0573607,
          14.5847486
        ]
      },
      "id": "node/3778717673"
    },
    {
      "type": "Feature",
      "properties": {
        "@id": "node/3778727227",
        "addr:city": "Taguig",
        "addr:housename": "KidZania",
        "addr:street": "Rizal Drive",
        "addr:street:corner": "11th Avenue",
        "amenity": "cafe",
        "name": "J.CO"
      },
      "geometry": {
        "type": "Point",
        "coordinates": [
          121.0546508,
          14.5539012
        ]
      },
      "id": "node/3778727227"
    },
    {
      "type": "Feature",
      "properties": {
        "@id": "node/3778727228",
        "addr:city": "Taguig",
        "addr:housename": "KidZania",
        "addr:street": "Rizal Drive",
        "addr:street:corner": "11th Avenue",
        "amenity": "cafe",
        "name": "The Coffee Bean & Tea Leaf",
        "name:abbr": "CBTL"
      },
      "geometry": {
        "type": "Point",
        "coordinates": [
          121.0550564,
          14.5533022
        ]
      },
      "id": "node/3778727228"
    },
    {
      "type": "Feature",
      "properties": {
        "@id": "node/3778738909",
        "addr:city": "Makati",
        "addr:housename": "McKinley Exchange Corporate Center",
        "addr:street": "EDSA",
        "addr:street:corner": "McKinley Road",
        "amenity": "cafe",
        "name": "Starbucks Coffee"
      },
      "geometry": {
        "type": "Point",
        "coordinates": [
          121.0295077,
          14.5496279
        ]
      },
      "id": "node/3778738909"
    },
    {
      "type": "Feature",
      "properties": {
        "@id": "node/3824547590",
        "amenity": "cafe",
        "name": "Starbucks"
      },
      "geometry": {
        "type": "Point",
        "coordinates": [
          121.0693851,
          14.5900278
        ]
      },
      "id": "node/3824547590"
    },
    {
      "type": "Feature",
      "properties": {
        "@id": "node/3824547591",
        "addr:city": "Pasig",
        "addr:floor": "G/F",
        "addr:housename": "Rockwell Business Center Tower 3",
        "addr:place": "Ortigas Center",
        "addr:postcode": "1604",
        "addr:street": "Ortigas Avenue",
        "amenity": "cafe",
        "level": "0",
        "name": "Yamato Bakery Café"
      },
      "geometry": {
        "type": "Point",
        "coordinates": [
          121.0684536,
          14.5896339
        ]
      },
      "id": "node/3824547591"
    },
    {
      "type": "Feature",
      "properties": {
        "@id": "node/3832918158",
        "addr:city": "Taguig",
        "addr:housename": "Eight Forbes Town Road",
        "addr:street": "Forbes Town Road",
        "amenity": "cafe",
        "branch": "Forbestown",
        "name": "Milkcow"
      },
      "geometry": {
        "type": "Point",
        "coordinates": [
          121.0440449,
          14.550621
        ]
      },
      "id": "node/3832918158"
    },
    {
      "type": "Feature",
      "properties": {
        "@id": "node/3868535670",
        "addr:city": "Pasig",
        "addr:floor": "Ground Floor",
        "addr:housename": "Cyberscape Beta",
        "addr:street": "Ruby Road",
        "amenity": "cafe",
        "branch": "BTA",
        "name": "Toby's Estate"
      },
      "geometry": {
        "type": "Point",
        "coordinates": [
          121.0608845,
          14.5879381
        ]
      },
      "id": "node/3868535670"
    },
    {
      "type": "Feature",
      "properties": {
        "@id": "node/3908855381",
        "addr:city": "Makati",
        "addr:housename": "Petron Square Bel-Air",
        "addr:street": "Senator Gil Puyat Avenue",
        "addr:street:corner": "Makati Avenue",
        "amenity": "cafe",
        "brand": "Dunkin' Donuts",
        "brand:wikidata": "Q847743",
        "brand:wikipedia": "en:Dunkin' Donuts",
        "cuisine": "donut",
        "name": "Dunkin' Donuts"
      },
      "geometry": {
        "type": "Point",
        "coordinates": [
          121.0272361,
          14.561916
        ]
      },
      "id": "node/3908855381"
    },
    {
      "type": "Feature",
      "properties": {
        "@id": "node/3909506576",
        "addr:city": "Makati",
        "addr:housename": "Patriarch Building",
        "addr:housenumber": "2224",
        "addr:street": "Don Chino Roces Avenue",
        "addr:street:corner": "Don Bosco",
        "amenity": "cafe",
        "name": "Figaro"
      },
      "geometry": {
        "type": "Point",
        "coordinates": [
          121.0145086,
          14.5477363
        ]
      },
      "id": "node/3909506576"
    },
    {
      "type": "Feature",
      "properties": {
        "@id": "node/3931924702",
        "amenity": "cafe",
        "name": "Bo's Coffee"
      },
      "geometry": {
        "type": "Point",
        "coordinates": [
          121.0005454,
          14.5233348
        ]
      },
      "id": "node/3931924702"
    },
    {
      "type": "Feature",
      "properties": {
        "@id": "node/3931929840",
        "amenity": "cafe",
        "name": "Coffee House D+C"
      },
      "geometry": {
        "type": "Point",
        "coordinates": [
          121.0003564,
          14.5229063
        ]
      },
      "id": "node/3931929840"
    },
    {
      "type": "Feature",
      "properties": {
        "@id": "node/3962644957",
        "addr:street": "Makati Avenue",
        "amenity": "cafe",
        "name": "Coffee Bean & Tea Leaf"
      },
      "geometry": {
        "type": "Point",
        "coordinates": [
          121.0298069,
          14.5661634
        ]
      },
      "id": "node/3962644957"
    },
    {
      "type": "Feature",
      "properties": {
        "@id": "node/4043025495",
        "amenity": "cafe",
        "name": "Cab"
      },
      "geometry": {
        "type": "Point",
        "coordinates": [
          121.0606355,
          14.5709913
        ]
      },
      "id": "node/4043025495"
    },
    {
      "type": "Feature",
      "properties": {
        "@id": "node/4089309862",
        "addr:city": "Manila",
        "addr:province": "Metro Manila",
        "amenity": "cafe",
        "internet_access": "yes",
        "name": "Bo's Coffee",
        "note": "opens april 2016"
      },
      "geometry": {
        "type": "Point",
        "coordinates": [
          120.9922471,
          14.5672765
        ]
      },
      "id": "node/4089309862"
    },
    {
      "type": "Feature",
      "properties": {
        "@id": "node/4118979790",
        "addr:street": "Manlunas",
        "amenity": "cafe",
        "brand": "Dunkin' Donuts",
        "brand:wikidata": "Q847743",
        "brand:wikipedia": "en:Dunkin' Donuts",
        "name": "Dunkin' Donuts"
      },
      "geometry": {
        "type": "Point",
        "coordinates": [
          121.0136502,
          14.5243604
        ]
      },
      "id": "node/4118979790"
    },
    {
      "type": "Feature",
      "properties": {
        "@id": "node/4134747784",
        "addr:city": "Taguig City",
        "addr:street": "Rizal Drive",
        "addr:street:corner": "29th Street",
        "amenity": "cafe",
        "name": "Krispy Kreme"
      },
      "geometry": {
        "type": "Point",
        "coordinates": [
          121.0449299,
          14.5528427
        ]
      },
      "id": "node/4134747784"
    },
    {
      "type": "Feature",
      "properties": {
        "@id": "node/4177666489",
        "amenity": "cafe",
        "name": "Coffee Bean and Tea Leaf"
      },
      "geometry": {
        "type": "Point",
        "coordinates": [
          121.0198486,
          14.5756777
        ]
      },
      "id": "node/4177666489"
    },
    {
      "type": "Feature",
      "properties": {
        "@id": "node/4204349896",
        "amenity": "cafe",
        "brand": "Starbucks",
        "brand:wikidata": "Q37158",
        "brand:wikipedia": "en:Starbucks",
        "cuisine": "coffee_shop",
        "name": "Starbucks",
        "official_name": "Starbucks Coffee",
        "takeaway": "yes"
      },
      "geometry": {
        "type": "Point",
        "coordinates": [
          121.0143362,
          14.5196022
        ]
      },
      "id": "node/4204349896"
    },
    {
      "type": "Feature",
      "properties": {
        "@id": "node/4250629221",
        "addr:city": "Makati",
        "addr:housename": "Alphaland Makati",
        "addr:postcode": "1203",
        "addr:street": "Malugay",
        "amenity": "cafe",
        "cuisine": "coffee_shop",
        "internet_access": "no",
        "name": "Zoo Coffee",
        "opening_hours": "Mo-Fr 07:00-23:00; Sa 08:00-22:00; Su 10:00-21:00",
        "smoking": "outside",
        "source": "©AhnBustamante",
        "website": "http://www.zoo-coffee.com/",
        "wheelchair": "yes"
      },
      "geometry": {
        "type": "Point",
        "coordinates": [
          121.0161702,
          14.5624341
        ]
      },
      "id": "node/4250629221"
    },
    {
      "type": "Feature",
      "properties": {
        "@id": "node/4250700304",
        "addr:city": "Makati",
        "addr:housename": "Alphaland Makati Place",
        "addr:street": "Malugay",
        "amenity": "cafe",
        "cuisine": "asian",
        "internet_access": "no",
        "level": "1",
        "name": "Whisk",
        "opening_hours": "10:00-22:00",
        "smoking": "outside",
        "source": "Ahn Bustamante site visit 2016",
        "website": "http://www.zoo-coffee.com"
      },
      "geometry": {
        "type": "Point",
        "coordinates": [
          121.0161157,
          14.5624307
        ]
      },
      "id": "node/4250700304"
    },
    {
      "type": "Feature",
      "properties": {
        "@id": "node/4279578015",
        "addr:city": "Taguig",
        "addr:housename": "B:3, Bonifacio High Street",
        "addr:street": "9th Avenue",
        "amenity": "cafe",
        "name": "Happy Lemon"
      },
      "geometry": {
        "type": "Point",
        "coordinates": [
          121.0507377,
          14.5509438
        ]
      },
      "id": "node/4279578015"
    },
    {
      "type": "Feature",
      "properties": {
        "@id": "node/4279578020",
        "addr:city": "Taguig",
        "addr:housename": "B:3, Bonifacio High Street",
        "addr:street": "7th Avenue",
        "amenity": "cafe",
        "name": "Moonleaf"
      },
      "geometry": {
        "type": "Point",
        "coordinates": [
          121.0499268,
          14.5514138
        ]
      },
      "id": "node/4279578020"
    },
    {
      "type": "Feature",
      "properties": {
        "@id": "node/4304858797",
        "addr:city": "Makati",
        "addr:floor": "G/F",
        "addr:housename": "Security Bank Centre",
        "addr:housenumber": "6776",
        "addr:street": "Ayala Avenue",
        "amenity": "cafe",
        "level": "0",
        "name": "Starbucks Coffee",
        "name:abbr": "Starbucks",
        "short_name": "Starbucks"
      },
      "geometry": {
        "type": "Point",
        "coordinates": [
          121.0199166,
          14.5572797
        ]
      },
      "id": "node/4304858797"
    },
    {
      "type": "Feature",
      "properties": {
        "@id": "node/4319063607",
        "amenity": "cafe",
        "name": "Chatime"
      },
      "geometry": {
        "type": "Point",
        "coordinates": [
          121.0770421,
          14.5847774
        ]
      },
      "id": "node/4319063607"
    },
    {
      "type": "Feature",
      "properties": {
        "@id": "node/4319088400",
        "amenity": "cafe",
        "brand": "Chatime",
        "brand:en": "Chatime",
        "brand:wikidata": "Q16829306",
        "brand:wikipedia": "en:Chatime",
        "brand:zh": "日出茶太",
        "cuisine": "bubble_tea",
        "name": "Chatime",
        "name:en": "Chatime",
        "name:zh": "日出茶太",
        "takeaway": "yes"
      },
      "geometry": {
        "type": "Point",
        "coordinates": [
          121.0582345,
          14.5735284
        ]
      },
      "id": "node/4319088400"
    },
    {
      "type": "Feature",
      "properties": {
        "@id": "node/4362949791",
        "amenity": "cafe",
        "name": "Seattle's Best",
        "name:en": "Seattle's Best"
      },
      "geometry": {
        "type": "Point",
        "coordinates": [
          121.0146153,
          14.5593175
        ]
      },
      "id": "node/4362949791"
    },
    {
      "type": "Feature",
      "properties": {
        "@id": "node/4364588096",
        "addr:city": "Manila",
        "addr:district": "Paco",
        "addr:postcode": "1007",
        "addr:street": "Paz Mendoza Guazon Street",
        "amenity": "cafe",
        "brand": "Starbucks",
        "brand:website": "https://www.starbucks.ph/",
        "brand:wikidata": "Q37158",
        "brand:wikipedia": "en:Starbucks",
        "cuisine": "coffee_shop",
        "delivery": "no",
        "level": "0",
        "name": "Starbucks",
        "name:en": "Starbucks Coffee",
        "official_name": "Starbucks Coffee",
        "operator": "Rustan Coffee Corporation",
        "payment:alipay": "yes",
        "payment:cash": "yes",
        "payment:debit_mastercard": "yes",
        "payment:gcash": "yes",
        "payment:grabpay": "yes",
        "payment:mastercard": "yes",
        "payment:visa": "yes",
        "payment:visa_debit": "yes",
        "payment:wechat": "yes",
        "phone": "+63 2 8559 0733",
        "takeaway": "yes"
      },
      "geometry": {
        "type": "Point",
        "coordinates": [
          120.9960193,
          14.5876025
        ]
      },
      "id": "node/4364588096"
    },
    {
      "type": "Feature",
      "properties": {
        "@id": "node/4419870006",
        "addr:city": "Makati",
        "addr:street": "Don Chino Roces Avenue",
        "amenity": "cafe",
        "cuisine": "coffee_shop",
        "name": "Satinka Naturals"
      },
      "geometry": {
        "type": "Point",
        "coordinates": [
          121.012636,
          14.5659973
        ]
      },
      "id": "node/4419870006"
    },
    {
      "type": "Feature",
      "properties": {
        "@id": "node/4443249994",
        "amenity": "cafe",
        "name": "Gongcha",
        "name:en": "Gongcha"
      },
      "geometry": {
        "type": "Point",
        "coordinates": [
          121.04736,
          14.5711204
        ]
      },
      "id": "node/4443249994"
    },
    {
      "type": "Feature",
      "properties": {
        "@id": "node/4445618484",
        "amenity": "cafe",
        "name": "Dunkin' Donuts"
      },
      "geometry": {
        "type": "Point",
        "coordinates": [
          121.0231098,
          14.5896896
        ]
      },
      "id": "node/4445618484"
    },
    {
      "type": "Feature",
      "properties": {
        "@id": "node/4446521189",
        "addr:city": "Mandaluyong",
        "addr:postcode": "1550",
        "addr:street": "Sheridan",
        "amenity": "cafe",
        "cuisine": "donut",
        "name": "Dunkin' Donuts"
      },
      "geometry": {
        "type": "Point",
        "coordinates": [
          121.0529938,
          14.5739168
        ]
      },
      "id": "node/4446521189"
    },
    {
      "type": "Feature",
      "properties": {
        "@id": "node/4455931490",
        "amenity": "cafe",
        "name": "Starbucks",
        "name:en": "Starbucks"
      },
      "geometry": {
        "type": "Point",
        "coordinates": [
          121.0533002,
          14.5512659
        ]
      },
      "id": "node/4455931490"
    },
    {
      "type": "Feature",
      "properties": {
        "@id": "node/4476205706",
        "addr:city": "Makati",
        "addr:postcode": "1230",
        "addr:street": "Don Chino Roces Avenue",
        "amenity": "cafe",
        "cuisine": "pizza;coffee_shop",
        "internet_access": "yes",
        "internet_access:fee": "customers",
        "name": "Caffee Project",
        "outdoor_seating": "yes"
      },
      "geometry": {
        "type": "Point",
        "coordinates": [
          121.0139211,
          14.5488611
        ]
      },
      "id": "node/4476205706"
    },
    {
      "type": "Feature",
      "properties": {
        "@id": "node/4497859589",
        "addr:city": "Taguig",
        "addr:floor": "G/F",
        "addr:housename": "Shangri-La at the Fort",
        "addr:street": "5th Avenue",
        "addr:street:corner": "30th Street",
        "amenity": "cafe",
        "cuisine": "coffee_shop",
        "level": "0",
        "name": "Toby's Estate"
      },
      "geometry": {
        "type": "Point",
        "coordinates": [
          121.0474261,
          14.5519321
        ]
      },
      "id": "node/4497859589"
    },
    {
      "type": "Feature",
      "properties": {
        "@id": "node/4502329590",
        "amenity": "cafe",
        "name": "Dean & Deluca",
        "name:en": "Dean & Deluca"
      },
      "geometry": {
        "type": "Point",
        "coordinates": [
          121.0364789,
          14.5660315
        ]
      },
      "id": "node/4502329590"
    },
    {
      "type": "Feature",
      "properties": {
        "@id": "node/4509788507",
        "amenity": "cafe",
        "name": "J. Co Donuts",
        "name:en": "J. Co Donuts"
      },
      "geometry": {
        "type": "Point",
        "coordinates": [
          120.9897918,
          14.5605251
        ]
      },
      "id": "node/4509788507"
    },
    {
      "type": "Feature",
      "properties": {
        "@id": "node/4509788806",
        "amenity": "cafe",
        "name": "Starbucks",
        "name:en": "Starbucks"
      },
      "geometry": {
        "type": "Point",
        "coordinates": [
          121.0061947,
          14.5591685
        ]
      },
      "id": "node/4509788806"
    },
    {
      "type": "Feature",
      "properties": {
        "@id": "node/4509788990",
        "amenity": "cafe",
        "name": "Chocolat",
        "name:en": "Chocolat"
      },
      "geometry": {
        "type": "Point",
        "coordinates": [
          121.0018348,
          14.5561865
        ]
      },
      "id": "node/4509788990"
    },
    {
      "type": "Feature",
      "properties": {
        "@id": "node/4524696230",
        "addr:city": "Makati",
        "addr:floor": "G/F",
        "addr:housename": "League One Southgate Mall",
        "addr:postcode": "1231",
        "addr:street": "EDSA",
        "addr:street:corner": "Don Chino Roces Avenue",
        "amenity": "cafe",
        "level": "0",
        "name": "Starbucks"
      },
      "geometry": {
        "type": "Point",
        "coordinates": [
          121.0191042,
          14.541127
        ]
      },
      "id": "node/4524696230"
    },
    {
      "type": "Feature",
      "properties": {
        "@id": "node/4551155224",
        "addr:city": "Mandaluyong",
        "addr:floor": "LG",
        "addr:housename": "Shangri-La Plaza",
        "addr:street": "EDSA",
        "addr:street:corner": "Shaw Boulevard",
        "amenity": "cafe",
        "level": "0",
        "name": "The Coffee Bean & Tea Leaf"
      },
      "geometry": {
        "type": "Point",
        "coordinates": [
          121.0552592,
          14.5812895
        ]
      },
      "id": "node/4551155224"
    },
    {
      "type": "Feature",
      "properties": {
        "@id": "node/4662852490",
        "amenity": "cafe",
        "name": "Starbucks",
        "name:en": "Starbucks"
      },
      "geometry": {
        "type": "Point",
        "coordinates": [
          121.0296963,
          14.5651475
        ]
      },
      "id": "node/4662852490"
    },
    {
      "type": "Feature",
      "properties": {
        "@id": "node/4664624289",
        "amenity": "cafe",
        "name": "Crepe Amélie",
        "name:en": "Crepe Amélie"
      },
      "geometry": {
        "type": "Point",
        "coordinates": [
          121.0297014,
          14.5658942
        ]
      },
      "id": "node/4664624289"
    },
    {
      "type": "Feature",
      "properties": {
        "@id": "node/4693779294",
        "amenity": "cafe",
        "name": "Le Reese",
        "name:en": "Le Reese"
      },
      "geometry": {
        "type": "Point",
        "coordinates": [
          121.0285168,
          14.5842118
        ]
      },
      "id": "node/4693779294"
    },
    {
      "type": "Feature",
      "properties": {
        "@id": "node/4697440819",
        "addr:street": "Don Chino Roces Avenue",
        "amenity": "cafe",
        "brand": "Starbucks",
        "brand:wikidata": "Q37158",
        "brand:wikipedia": "en:Starbucks",
        "cuisine": "coffee_shop",
        "name": "Starbucks",
        "name:en": "Starbucks",
        "official_name": "Starbucks Coffee",
        "takeaway": "yes"
      },
      "geometry": {
        "type": "Point",
        "coordinates": [
          121.0121079,
          14.5589536
        ]
      },
      "id": "node/4697440819"
    },
    {
      "type": "Feature",
      "properties": {
        "@id": "node/4706090317",
        "amenity": "cafe",
        "brand": "Mister Donut",
        "brand:wikipedia": "en:Mister Donut",
        "cuisine": "donut",
        "name": "Mister Donut",
        "name:en": "Mister Donut",
        "website": "https://www.mister-donut.com"
      },
      "geometry": {
        "type": "Point",
        "coordinates": [
          121.0451058,
          14.5645607
        ]
      },
      "id": "node/4706090317"
    },
    {
      "type": "Feature",
      "properties": {
        "@id": "node/4707778190",
        "addr:city": "Makati",
        "addr:housenumber": "14",
        "addr:street": "Jupiter",
        "addr:street:corner": "Asteroid",
        "alt_name": "Starbucks Reserve",
        "amenity": "cafe",
        "brand": "Starbucks",
        "brand:wikidata": "Q37158",
        "brand:wikipedia": "en:Starbucks",
        "cuisine": "coffee_shop",
        "level": "0",
        "name": "Starbucks Coffee",
        "name:en": "Starbucks Coffee",
        "opening_hours": "Mo-Sa 06:00-00:00",
        "operator": "Rustan Coffee Corporation",
        "outdoor_seating": "no",
        "payment:alipay": "yes",
        "payment:cash": "yes",
        "payment:debit_mastercard": "yes",
        "payment:gcash": "yes",
        "payment:grabpay": "yes",
        "payment:mastercard": "yes",
        "payment:visa": "yes",
        "payment:visa_debit": "yes",
        "payment:wechat": "yes",
        "phone": "+63 2 8896 2755",
        "ref:vatin": "PH005215077329",
        "short_name": "Starbucks",
        "smoking": "no",
        "takeaway": "yes",
        "wheelchair": "yes"
      },
      "geometry": {
        "type": "Point",
        "coordinates": [
          121.0341054,
          14.5572875
        ]
      },
      "id": "node/4707778190"
    },
    {
      "type": "Feature",
      "properties": {
        "@id": "node/4726865654",
        "amenity": "cafe",
        "cuisine": "coffee_shop",
        "name": "Crepeman Café"
      },
      "geometry": {
        "type": "Point",
        "coordinates": [
          121.0608345,
          14.5740561
        ]
      },
      "id": "node/4726865654"
    },
    {
      "type": "Feature",
      "properties": {
        "@id": "node/4755621644",
        "addr:street": "Leon Guinto Street",
        "amenity": "cafe",
        "name": "Dakasi",
        "name:en": "Dakasi"
      },
      "geometry": {
        "type": "Point",
        "coordinates": [
          120.9950889,
          14.5651517
        ]
      },
      "id": "node/4755621644"
    },
    {
      "type": "Feature",
      "properties": {
        "@id": "node/4760968122",
        "amenity": "cafe",
        "cuisine": "sandwich;coffee_shop",
        "name": "Juno Foods",
        "name:en": "Juno Foods"
      },
      "geometry": {
        "type": "Point",
        "coordinates": [
          121.0256396,
          14.5563338
        ]
      },
      "id": "node/4760968122"
    },
    {
      "type": "Feature",
      "properties": {
        "@id": "node/4792499400",
        "addr:housenumber": "Bayani Road",
        "addr:street": "56",
        "amenity": "cafe",
        "cuisine": "filipino",
        "name": "Wowa Kitchen x Cafe"
      },
      "geometry": {
        "type": "Point",
        "coordinates": [
          121.043409,
          14.5263298
        ]
      },
      "id": "node/4792499400"
    },
    {
      "type": "Feature",
      "properties": {
        "@id": "node/4838668987",
        "amenity": "cafe",
        "cuisine": "coffee_shop",
        "name": "United Coffee"
      },
      "geometry": {
        "type": "Point",
        "coordinates": [
          121.0592542,
          14.5740248
        ]
      },
      "id": "node/4838668987"
    },
    {
      "type": "Feature",
      "properties": {
        "@id": "node/4865583221",
        "addr:street": "Pablo Ocampo Sr. Avenue",
        "amenity": "cafe",
        "name": "The Grand Towers",
        "name:en": "The Grand Towers"
      },
      "geometry": {
        "type": "Point",
        "coordinates": [
          120.9947587,
          14.5622799
        ]
      },
      "id": "node/4865583221"
    },
    {
      "type": "Feature",
      "properties": {
        "@id": "node/4907243776",
        "addr:city": "Pasay",
        "addr:floor": "G/F",
        "addr:housename": "Scape Building",
        "addr:street": "Diosdado Macapagal Boulevard",
        "addr:street:corner": "Pearl Drive",
        "addr:unit": "Unit 103A",
        "amenity": "cafe",
        "branch": "Scape Building",
        "cuisine": "coffee_shop",
        "level": "0",
        "name": "Coffee Project"
      },
      "geometry": {
        "type": "Point",
        "coordinates": [
          120.989036,
          14.5332258
        ]
      },
      "id": "node/4907243776"
    },
    {
      "type": "Feature",
      "properties": {
        "@id": "node/4927836522",
        "amenity": "cafe",
        "name": "Teaza",
        "name:en": "Teaza"
      },
      "geometry": {
        "type": "Point",
        "coordinates": [
          121.0707938,
          14.532145
        ]
      },
      "id": "node/4927836522"
    },
    {
      "type": "Feature",
      "properties": {
        "@id": "node/4952282607",
        "amenity": "cafe",
        "name": "Inn Flight"
      },
      "geometry": {
        "type": "Point",
        "coordinates": [
          120.9950595,
          14.5274957
        ]
      },
      "id": "node/4952282607"
    },
    {
      "type": "Feature",
      "properties": {
        "@id": "node/4952284225",
        "amenity": "cafe",
        "name": "TJM Garden Cafe"
      },
      "geometry": {
        "type": "Point",
        "coordinates": [
          120.9950555,
          14.5263831
        ]
      },
      "id": "node/4952284225"
    },
    {
      "type": "Feature",
      "properties": {
        "@id": "node/4952294378",
        "amenity": "cafe",
        "name": "Geni's Cafe"
      },
      "geometry": {
        "type": "Point",
        "coordinates": [
          121.0004199,
          14.5232835
        ]
      },
      "id": "node/4952294378"
    },
    {
      "type": "Feature",
      "properties": {
        "@id": "node/4965738128",
        "amenity": "cafe",
        "name": "deli2go",
        "name:en": "deli2go"
      },
      "geometry": {
        "type": "Point",
        "coordinates": [
          121.0246231,
          14.5592416
        ]
      },
      "id": "node/4965738128"
    },
    {
      "type": "Feature",
      "properties": {
        "@id": "node/5040106224",
        "amenity": "cafe",
        "name": "Yardstick Academy",
        "name:en": "Yardstick Academy"
      },
      "geometry": {
        "type": "Point",
        "coordinates": [
          121.0172922,
          14.5578225
        ]
      },
      "id": "node/5040106224"
    },
    {
      "type": "Feature",
      "properties": {
        "@id": "node/5040106327",
        "addr:city": "Makati",
        "addr:housenumber": "36",
        "addr:street": "Polaris",
        "amenity": "cafe",
        "contact:email": "havecoffee@commune.ph",
        "contact:facebook": "https://www.facebook.com/pg/CommunePH/",
        "contact:phone": "+63 9198595848",
        "contact:website": "http://www.commune.ph",
        "cuisine": "coffee_shop;cake",
        "internet_access": "wlan",
        "lgbtq": "primary",
        "name": "communeph",
        "name:en": "Commune",
        "opening_hours": "Mo-Th 08:00-00:00; Fr-Sa 08:00-01:00; Su 09:00-22:00"
      },
      "geometry": {
        "type": "Point",
        "coordinates": [
          121.0301249,
          14.5626377
        ]
      },
      "id": "node/5040106327"
    },
    {
      "type": "Feature",
      "properties": {
        "@id": "node/5055078921",
        "addr:city": "Taguig",
        "amenity": "cafe",
        "name": "Starbucks",
        "name:en": "Starbucks"
      },
      "geometry": {
        "type": "Point",
        "coordinates": [
          121.0608501,
          14.529979
        ]
      },
      "id": "node/5055078921"
    },
    {
      "type": "Feature",
      "properties": {
        "@id": "node/5071484223",
        "amenity": "cafe",
        "name": "Riverside",
        "name:en": "Riverside"
      },
      "geometry": {
        "type": "Point",
        "coordinates": [
          121.0246327,
          14.5741692
        ]
      },
      "id": "node/5071484223"
    },
    {
      "type": "Feature",
      "properties": {
        "@id": "node/5213000485",
        "amenity": "cafe",
        "brand": "Starbucks",
        "cuisine": "coffee_shop",
        "name": "Starbucks",
        "official_name": "Starbucks Coffee",
        "takeaway": "yes"
      },
      "geometry": {
        "type": "Point",
        "coordinates": [
          121.0135956,
          14.5232899
        ]
      },
      "id": "node/5213000485"
    },
    {
      "type": "Feature",
      "properties": {
        "@id": "node/5225147356",
        "amenity": "cafe",
        "name": "Zentea"
      },
      "geometry": {
        "type": "Point",
        "coordinates": [
          120.9929372,
          14.5660872
        ]
      },
      "id": "node/5225147356"
    },
    {
      "type": "Feature",
      "properties": {
        "@id": "node/5225147357",
        "amenity": "cafe",
        "name": "Uni Lounge"
      },
      "geometry": {
        "type": "Point",
        "coordinates": [
          120.9930029,
          14.5661119
        ]
      },
      "id": "node/5225147357"
    },
    {
      "type": "Feature",
      "properties": {
        "@id": "node/5235769821",
        "amenity": "cafe",
        "name": "Infinitea"
      },
      "geometry": {
        "type": "Point",
        "coordinates": [
          120.9927148,
          14.5667181
        ]
      },
      "id": "node/5235769821"
    },
    {
      "type": "Feature",
      "properties": {
        "@id": "node/5281241222",
        "amenity": "cafe"
      },
      "geometry": {
        "type": "Point",
        "coordinates": [
          121.0129665,
          14.5708484
        ]
      },
      "id": "node/5281241222"
    },
    {
      "type": "Feature",
      "properties": {
        "@id": "node/5297693374",
        "addr:city": "Makati",
        "addr:floor": "G/F",
        "addr:housename": "Greenbelt Chancellor",
        "addr:housenumber": "112",
        "addr:street": "Rada",
        "addr:unit": "Unit B",
        "amenity": "cafe",
        "branch": "Rada",
        "cuisine": "bubble_tea",
        "level": "0",
        "name": "Serenitea"
      },
      "geometry": {
        "type": "Point",
        "coordinates": [
          121.0180601,
          14.5552927
        ]
      },
      "id": "node/5297693374"
    },
    {
      "type": "Feature",
      "properties": {
        "@id": "node/5297693377",
        "addr:city": "Makati",
        "addr:floor": "G/F",
        "addr:housename": "The Frabella I",
        "addr:housenumber": "109",
        "addr:street": "Rada",
        "amenity": "cafe",
        "branch": "Rada",
        "level": "0",
        "name": "The Coffee Bean & Tea Leaf"
      },
      "geometry": {
        "type": "Point",
        "coordinates": [
          121.0181835,
          14.555847
        ]
      },
      "id": "node/5297693377"
    },
    {
      "type": "Feature",
      "properties": {
        "@id": "node/5302184707",
        "amenity": "cafe",
        "name": "Treehouse"
      },
      "geometry": {
        "type": "Point",
        "coordinates": [
          120.9930937,
          14.5657624
        ]
      },
      "id": "node/5302184707"
    },
    {
      "type": "Feature",
      "properties": {
        "@id": "node/5325444422",
        "amenity": "cafe",
        "name": "Honesty Cafe",
        "name:en": "Honesty Cafe"
      },
      "geometry": {
        "type": "Point",
        "coordinates": [
          121.0010339,
          14.5690366
        ]
      },
      "id": "node/5325444422"
    },
    {
      "type": "Feature",
      "properties": {
        "@id": "node/5350202122",
        "addr:street": "Taft Avenue",
        "amenity": "cafe",
        "name": "Infinitea"
      },
      "geometry": {
        "type": "Point",
        "coordinates": [
          120.9952801,
          14.5629847
        ]
      },
      "id": "node/5350202122"
    },
    {
      "type": "Feature",
      "properties": {
        "@id": "node/5350202321",
        "amenity": "cafe",
        "name": "Project Coffee",
        "name:it": "Project"
      },
      "geometry": {
        "type": "Point",
        "coordinates": [
          120.9947741,
          14.5630636
        ]
      },
      "id": "node/5350202321"
    },
    {
      "type": "Feature",
      "properties": {
        "@id": "node/5365406327",
        "addr:city": "Pasig",
        "addr:housenumber": "11",
        "addr:postcode": "1603",
        "addr:street": "Brixton",
        "amenity": "cafe",
        "cuisine": "coffee_shop",
        "internet_access": "wlan",
        "internet_access:fee": "no",
        "name": "Caferista",
        "outdoor_seating": "no"
      },
      "geometry": {
        "type": "Point",
        "coordinates": [
          121.0567547,
          14.5716377
        ]
      },
      "id": "node/5365406327"
    },
    {
      "type": "Feature",
      "properties": {
        "@id": "node/5419547521",
        "amenity": "cafe",
        "name": "K9 cafe"
      },
      "geometry": {
        "type": "Point",
        "coordinates": [
          121.0527834,
          14.5296422
        ]
      },
      "id": "node/5419547521"
    },
    {
      "type": "Feature",
      "properties": {
        "@id": "node/5474714284",
        "amenity": "cafe",
        "internet_access": "wlan",
        "internet_access:fee": "no",
        "name": "Kismet Café",
        "outdoor_seating": "yes",
        "stars": "5",
        "takeaway": "yes",
        "wheelchair": "yes"
      },
      "geometry": {
        "type": "Point",
        "coordinates": [
          121.0302017,
          14.5638095
        ]
      },
      "id": "node/5474714284"
    },
    {
      "type": "Feature",
      "properties": {
        "@id": "node/5480890050",
        "addr:city": "Makati",
        "addr:floor": "G/F",
        "addr:housename": "Senta",
        "addr:street": "Legazpi",
        "addr:street:corner": "Rodriguez",
        "amenity": "cafe",
        "level": "0",
        "name": "Toby's Estate"
      },
      "geometry": {
        "type": "Point",
        "coordinates": [
          121.0168619,
          14.5546813
        ]
      },
      "id": "node/5480890050"
    },
    {
      "type": "Feature",
      "properties": {
        "@id": "node/5480890052",
        "addr:city": "Makati",
        "addr:street": "Makati Avenue",
        "addr:street:corner": "Jupiter",
        "amenity": "cafe",
        "name": "Bo's Coffee"
      },
      "geometry": {
        "type": "Point",
        "coordinates": [
          121.0283853,
          14.5623229
        ]
      },
      "id": "node/5480890052"
    },
    {
      "type": "Feature",
      "properties": {
        "@id": "node/5490559330",
        "amenity": "cafe",
        "level": "0",
        "name": "Coffee Bean & Tea Leaf"
      },
      "geometry": {
        "type": "Point",
        "coordinates": [
          121.0499035,
          14.5769535
        ]
      },
      "id": "node/5490559330"
    },
    {
      "type": "Feature",
      "properties": {
        "@id": "node/5499538301",
        "addr:city": "Pasig",
        "addr:street": "Doña Julia Vargas Avenue",
        "amenity": "cafe",
        "name": "Starbucks"
      },
      "geometry": {
        "type": "Point",
        "coordinates": [
          121.0625251,
          14.5840844
        ]
      },
      "id": "node/5499538301"
    },
    {
      "type": "Feature",
      "properties": {
        "@id": "node/5499552896",
        "addr:city": "Mandaluyong",
        "addr:floor": "G/F",
        "addr:housename": "The Podium",
        "addr:street": "Doña Julia Vargas Avenue",
        "amenity": "cafe",
        "level": "0",
        "name": "Starbucks Reserve"
      },
      "geometry": {
        "type": "Point",
        "coordinates": [
          121.0590684,
          14.5846906
        ]
      },
      "id": "node/5499552896"
    },
    {
      "type": "Feature",
      "properties": {
        "@id": "node/5513036322",
        "amenity": "cafe",
        "name": "Bo's Coffee"
      },
      "geometry": {
        "type": "Point",
        "coordinates": [
          121.0283583,
          14.5623376
        ]
      },
      "id": "node/5513036322"
    },
    {
      "type": "Feature",
      "properties": {
        "@id": "node/5521447721",
        "amenity": "cafe",
        "name": "Cuervorito",
        "name:ru": "здесь бурито"
      },
      "geometry": {
        "type": "Point",
        "coordinates": [
          120.9922774,
          14.5750641
        ]
      },
      "id": "node/5521447721"
    },
    {
      "type": "Feature",
      "properties": {
        "@id": "node/5521925021",
        "amenity": "cafe",
        "diet:vegetarian": "yes",
        "name:ru": "вегетерианское кафе.",
        "opening_hours": "Mo-Su 09:00-14:00"
      },
      "geometry": {
        "type": "Point",
        "coordinates": [
          120.9919923,
          14.5729964
        ]
      },
      "id": "node/5521925021"
    },
    {
      "type": "Feature",
      "properties": {
        "@id": "node/5578305196",
        "amenity": "cafe",
        "name": "Starbucks",
        "smoking": "no"
      },
      "geometry": {
        "type": "Point",
        "coordinates": [
          121.0516609,
          14.5577433
        ]
      },
      "id": "node/5578305196"
    },
    {
      "type": "Feature",
      "properties": {
        "@id": "node/5625483874",
        "addr:city": "Pasay",
        "addr:floor": "G/F",
        "addr:housename": "Belmont Hotel",
        "addr:street": "Newport Boulevard",
        "amenity": "cafe",
        "brand": "Starbucks",
        "brand:wikidata": "Q37158",
        "brand:wikipedia": "en:Starbucks",
        "cuisine": "coffee_shop",
        "level": "0",
        "name": "Starbucks",
        "official_name": "Starbucks Coffee",
        "takeaway": "yes"
      },
      "geometry": {
        "type": "Point",
        "coordinates": [
          121.0167217,
          14.5209342
        ]
      },
      "id": "node/5625483874"
    },
    {
      "type": "Feature",
      "properties": {
        "@id": "node/5625878621",
        "addr:city": "Pasig",
        "addr:floor": "2/F",
        "addr:housename": "Ayala Malls the 30th",
        "addr:street": "Meralco Avenue",
        "amenity": "cafe",
        "cuisine": "coffee_shop",
        "level": "1",
        "name": "Seattle's Best"
      },
      "geometry": {
        "type": "Point",
        "coordinates": [
          121.0641043,
          14.5809007
        ]
      },
      "id": "node/5625878621"
    },
    {
      "type": "Feature",
      "properties": {
        "@id": "node/5625878624",
        "addr:city": "Pasig",
        "addr:floor": "2/F",
        "addr:housename": "Ayala Malls the 30th",
        "addr:street": "Meralco Avenue",
        "amenity": "cafe",
        "cuisine": "coffee_shop",
        "level": "1",
        "name": "UCC Coffee Clockwork"
      },
      "geometry": {
        "type": "Point",
        "coordinates": [
          121.0644637,
          14.5807696
        ]
      },
      "id": "node/5625878624"
    },
    {
      "type": "Feature",
      "properties": {
        "@id": "node/5625878630",
        "addr:city": "Pasig",
        "addr:floor": "G/F",
        "addr:housename": "Ayala Malls the 30th",
        "addr:street": "Meralco Avenue",
        "amenity": "cafe",
        "cuisine": "coffee_shop",
        "level": "0",
        "name": "The Coffee Bean & Tea Leaf"
      },
      "geometry": {
        "type": "Point",
        "coordinates": [
          121.064402,
          14.5804503
        ]
      },
      "id": "node/5625878630"
    },
    {
      "type": "Feature",
      "properties": {
        "@id": "node/5625878631",
        "addr:city": "Pasig",
        "addr:floor": "G/F",
        "addr:housename": "Ayala Malls the 30th",
        "addr:street": "Meralco Avenue",
        "amenity": "cafe",
        "cuisine": "coffee_shop",
        "level": "0",
        "name": "Starbucks Coffee"
      },
      "geometry": {
        "type": "Point",
        "coordinates": [
          121.064115,
          14.5803647
        ]
      },
      "id": "node/5625878631"
    },
    {
      "type": "Feature",
      "properties": {
        "@id": "node/5625878657",
        "addr:city": "Pasig",
        "addr:floor": "G/F",
        "addr:housename": "Citadines Millennium",
        "addr:street": "Sapphire Road",
        "amenity": "cafe",
        "branch": "Citadines Millennium",
        "cuisine": "coffee_shop",
        "level": "0",
        "name": "The Coffee Bean & Tea Leaf"
      },
      "geometry": {
        "type": "Point",
        "coordinates": [
          121.0621436,
          14.5893954
        ]
      },
      "id": "node/5625878657"
    },
    {
      "type": "Feature",
      "properties": {
        "@id": "node/5625878661",
        "addr:city": "Quezon City",
        "addr:floor": "L2",
        "addr:housename": "Robinsons Galleria",
        "addr:housenumber": "2447",
        "addr:postcode": "1110",
        "addr:street": "Ortigas Avenue",
        "amenity": "cafe",
        "cuisine": "coffee_shop",
        "internet_access": "wlan",
        "level": "1",
        "name": "Costa Coffee",
        "opening_hours": "Mo-Su 08:00-23:00",
        "phone": "+63 2 631 8604"
      },
      "geometry": {
        "type": "Point",
        "coordinates": [
          121.06049,
          14.590274
        ]
      },
      "id": "node/5625878661"
    },
    {
      "type": "Feature",
      "properties": {
        "@id": "node/5625968963",
        "addr:city": "Taguig",
        "addr:floor": "G/F",
        "addr:housename": "Maybank Performing Arts Theater",
        "addr:street": "26th Street",
        "addr:street:corner": "9th Avenue",
        "amenity": "cafe",
        "brand": "McCafé",
        "brand:wikidata": "Q3114287",
        "brand:wikipedia": "en:McCafé",
        "cuisine": "coffee_shop",
        "level": "0",
        "name": "McCafé",
        "takeaway": "yes"
      },
      "geometry": {
        "type": "Point",
        "coordinates": [
          121.0495493,
          14.5476379
        ]
      },
      "id": "node/5625968963"
    },
    {
      "type": "Feature",
      "properties": {
        "@id": "node/5625968974",
        "addr:city": "Taguig",
        "addr:floor": "G/F",
        "addr:housename": "RCBC Savings Bank Corporate Center",
        "addr:street": "25th Street",
        "addr:street:corner": "6th Avenue",
        "amenity": "cafe",
        "cuisine": "coffee_shop",
        "level": "0",
        "name": "Starbucks Coffee"
      },
      "geometry": {
        "type": "Point",
        "coordinates": [
          121.0474531,
          14.5481506
        ]
      },
      "id": "node/5625968974"
    },
    {
      "type": "Feature",
      "properties": {
        "@id": "node/5625968976",
        "addr:city": "Taguig",
        "addr:housename": "Bonifacio High Street Central",
        "addr:street": "5th Avenue",
        "addr:street:corner": "30th Street",
        "amenity": "cafe",
        "name": "Selfie Cafe"
      },
      "geometry": {
        "type": "Point",
        "coordinates": [
          121.0485093,
          14.5514887
        ]
      },
      "id": "node/5625968976"
    },
    {
      "type": "Feature",
      "properties": {
        "@id": "node/5626020965",
        "addr:city": "Taguig",
        "addr:floor": "G/F",
        "addr:housename": "The Plaza at Arya Residences",
        "addr:street": "McKinley Parkway",
        "addr:street:corner": "8th Avenue",
        "amenity": "cafe",
        "brand": "Starbucks",
        "brand:wikidata": "Q37158",
        "cuisine": "coffee_shop",
        "level": "0",
        "name": "Starbucks Reserve",
        "takeaway": "yes"
      },
      "geometry": {
        "type": "Point",
        "coordinates": [
          121.0485175,
          14.546006
        ]
      },
      "id": "node/5626020965"
    },
    {
      "type": "Feature",
      "properties": {
        "@id": "node/5689560069",
        "amenity": "cafe",
        "name": "Starbucks"
      },
      "geometry": {
        "type": "Point",
        "coordinates": [
          121.0554624,
          14.576174
        ]
      },
      "id": "node/5689560069"
    },
    {
      "type": "Feature",
      "properties": {
        "@id": "node/5694520975",
        "amenity": "cafe",
        "level": "0",
        "name": "Coffee Bean and Tea Leaf"
      },
      "geometry": {
        "type": "Point",
        "coordinates": [
          121.0454303,
          14.587208
        ]
      },
      "id": "node/5694520975"
    },
    {
      "type": "Feature",
      "properties": {
        "@id": "node/5712913832",
        "addr:city": "Pasay",
        "addr:floor": "G/F",
        "addr:housename": "Double Dragon Plaza",
        "addr:street": "EDSA Extension",
        "addr:street:corner": "Diosdado Macapagal Boulevard",
        "amenity": "cafe",
        "cuisine": "coffee_shop",
        "internet_access": "wlan",
        "level": "0",
        "name": "Highlands Coffee"
      },
      "geometry": {
        "type": "Point",
        "coordinates": [
          120.9913131,
          14.5364362
        ]
      },
      "id": "node/5712913832"
    },
    {
      "type": "Feature",
      "properties": {
        "@id": "node/5712913833",
        "addr:city": "Pasay",
        "addr:floor": "G/F",
        "addr:housename": "Double Dragon Plaza",
        "addr:street": "EDSA Extension",
        "addr:street:corner": "Diosdado Macapagal Boulevard",
        "amenity": "cafe",
        "level": "0",
        "name": "The Coffee Bean & Tea Leaf"
      },
      "geometry": {
        "type": "Point",
        "coordinates": [
          120.9894814,
          14.5359941
        ]
      },
      "id": "node/5712913833"
    },
    {
      "type": "Feature",
      "properties": {
        "@id": "node/5727273629",
        "amenity": "cafe",
        "name": "Wang Fu Chinese Cafe"
      },
      "geometry": {
        "type": "Point",
        "coordinates": [
          121.054226,
          14.5496779
        ]
      },
      "id": "node/5727273629"
    },
    {
      "type": "Feature",
      "properties": {
        "@id": "node/5728168776",
        "amenity": "cafe",
        "name": "Bench Cafe"
      },
      "geometry": {
        "type": "Point",
        "coordinates": [
          121.0513832,
          14.550189
        ]
      },
      "id": "node/5728168776"
    },
    {
      "type": "Feature",
      "properties": {
        "@id": "node/5741183468",
        "addr:city": "Makati",
        "addr:floor": "G/F",
        "addr:housename": "Allegro Center",
        "addr:housenumber": "2284",
        "addr:street": "Don Chino Roces Avenue",
        "amenity": "cafe",
        "level": "0",
        "name": "Starbucks"
      },
      "geometry": {
        "type": "Point",
        "coordinates": [
          121.0203604,
          14.5363828
        ]
      },
      "id": "node/5741183468"
    },
    {
      "type": "Feature",
      "properties": {
        "@id": "node/5750521276",
        "amenity": "cafe",
        "name": "Chatime"
      },
      "geometry": {
        "type": "Point",
        "coordinates": [
          121.006286,
          14.5590941
        ]
      },
      "id": "node/5750521276"
    },
    {
      "type": "Feature",
      "properties": {
        "@id": "node/5780566853",
        "addr:housenumber": "2430",
        "addr:postcode": "1110",
        "amenity": "cafe",
        "name": "The Coffee Bean & Tea Leaf"
      },
      "geometry": {
        "type": "Point",
        "coordinates": [
          121.0602424,
          14.5902677
        ]
      },
      "id": "node/5780566853"
    },
    {
      "type": "Feature",
      "properties": {
        "@id": "node/5783070654",
        "amenity": "cafe",
        "name": "Mrs. Fields"
      },
      "geometry": {
        "type": "Point",
        "coordinates": [
          121.0121551,
          14.5203685
        ]
      },
      "id": "node/5783070654"
    },
    {
      "type": "Feature",
      "properties": {
        "@id": "node/5798711153",
        "amenity": "cafe",
        "cuisine": "cake",
        "name": "Cafe Xpress"
      },
      "geometry": {
        "type": "Point",
        "coordinates": [
          121.0131365,
          14.5208876
        ]
      },
      "id": "node/5798711153"
    },
    {
      "type": "Feature",
      "properties": {
        "@id": "node/5799337318",
        "amenity": "cafe",
        "name": "Swig"
      },
      "geometry": {
        "type": "Point",
        "coordinates": [
          121.0112063,
          14.5789577
        ]
      },
      "id": "node/5799337318"
    },
    {
      "type": "Feature",
      "properties": {
        "@id": "node/5807612430",
        "addr:city": "Taguig",
        "addr:floor": "1",
        "addr:place": "Uptown Place Tower 2",
        "addr:street": "11th Drive",
        "amenity": "cafe",
        "branch": "Uptown Place",
        "level": "0",
        "name": "Tim Horton's",
        "source": "Schadow1 Expeditions"
      },
      "geometry": {
        "type": "Point",
        "coordinates": [
          121.054276,
          14.5558262
        ]
      },
      "id": "node/5807612430"
    },
    {
      "type": "Feature",
      "properties": {
        "@id": "node/5863182966",
        "amenity": "cafe",
        "name": "Tim Hortons"
      },
      "geometry": {
        "type": "Point",
        "coordinates": [
          121.0188405,
          14.5725766
        ]
      },
      "id": "node/5863182966"
    },
    {
      "type": "Feature",
      "properties": {
        "@id": "node/6104768903",
        "addr:city": "Pasay",
        "addr:floor": "G/F",
        "addr:housename": "W.Mall",
        "addr:street": "Diosdado Macapagal Boulevard",
        "addr:street:corner": "Coral Way",
        "amenity": "cafe",
        "brand:wikidata": "Q1141384",
        "cuisine": "coffee_shop",
        "level": "0",
        "name": "The Coffee Bean & Tea Leaf",
        "takeaway": "yes"
      },
      "geometry": {
        "type": "Point",
        "coordinates": [
          120.9891517,
          14.5321721
        ]
      },
      "id": "node/6104768903"
    },
    {
      "type": "Feature",
      "properties": {
        "@id": "node/6147388172",
        "amenity": "cafe",
        "cuisine": "coffee_shop",
        "internet_access": "wlan",
        "name": "T&C Thread and Coffee"
      },
      "geometry": {
        "type": "Point",
        "coordinates": [
          121.0172617,
          14.5711453
        ]
      },
      "id": "node/6147388172"
    },
    {
      "type": "Feature",
      "properties": {
        "@id": "node/6185194099",
        "amenity": "cafe",
        "level": "0",
        "name": "Cafe France"
      },
      "geometry": {
        "type": "Point",
        "coordinates": [
          121.0579977,
          14.5777534
        ]
      },
      "id": "node/6185194099"
    },
    {
      "type": "Feature",
      "properties": {
        "@id": "node/6192498316",
        "addr:city": "Parañaque",
        "addr:floor": "G/F",
        "addr:housename": "Aseana Three",
        "addr:street": "Diosdado Macapagal Boulevard",
        "addr:street:corner": "Asean Avenue",
        "amenity": "cafe",
        "level": "0",
        "name": "Mr. Tea",
        "name:en": "Mr. Tea",
        "name:zh": "茶先森",
        "website": "http://www.mrtea.ph/"
      },
      "geometry": {
        "type": "Point",
        "coordinates": [
          120.9899891,
          14.5256335
        ]
      },
      "id": "node/6192498316"
    },
    {
      "type": "Feature",
      "properties": {
        "@id": "node/6248423770",
        "addr:city": "Pasig",
        "addr:street": "Brixton",
        "amenity": "cafe",
        "name": "Roadster Cafe"
      },
      "geometry": {
        "type": "Point",
        "coordinates": [
          121.0585183,
          14.5729551
        ]
      },
      "id": "node/6248423770"
    },
    {
      "type": "Feature",
      "properties": {
        "@id": "node/6267552208",
        "amenity": "cafe",
        "name": "The Giving Café",
        "name:abbr": "TGC",
        "opening_hours": "07:00-22:00"
      },
      "geometry": {
        "type": "Point",
        "coordinates": [
          121.051927,
          14.5731845
        ]
      },
      "id": "node/6267552208"
    },
    {
      "type": "Feature",
      "properties": {
        "@id": "node/6313621896",
        "addr:city": "Pasay",
        "addr:street": "EDSA Extension",
        "amenity": "cafe",
        "brand": "Tim Hortons",
        "brand:wikidata": "Q175106",
        "brand:wikipedia": "en:Tim Hortons",
        "name": "Tim Hortons"
      },
      "geometry": {
        "type": "Point",
        "coordinates": [
          120.990556,
          14.5372404
        ]
      },
      "id": "node/6313621896"
    },
    {
      "type": "Feature",
      "properties": {
        "@id": "node/6315496913",
        "amenity": "cafe"
      },
      "geometry": {
        "type": "Point",
        "coordinates": [
          121.02561,
          14.560583
        ]
      },
      "id": "node/6315496913"
    },
    {
      "type": "Feature",
      "properties": {
        "@id": "node/6320066120",
        "addr:city": "Makati",
        "addr:housenumber": "830",
        "addr:postcode": "1223",
        "addr:street": "Antonio S. Arnaiz Avenue",
        "amenity": "cafe",
        "name": "Hineleban Cafe",
        "outdoor_seating": "no"
      },
      "geometry": {
        "type": "Point",
        "coordinates": [
          121.0188403,
          14.5508004
        ]
      },
      "id": "node/6320066120"
    },
    {
      "type": "Feature",
      "properties": {
        "@id": "node/6337000769",
        "amenity": "cafe",
        "name": "Cafe Romancon"
      },
      "geometry": {
        "type": "Point",
        "coordinates": [
          120.9977639,
          14.56613
        ]
      },
      "id": "node/6337000769"
    },
    {
      "type": "Feature",
      "properties": {
        "@id": "node/6373797009",
        "addr:floor": "G/F",
        "addr:housenumber": "111",
        "addr:street": "Paseo de Roxas",
        "addr:street:corner": "Legaspi",
        "amenity": "cafe",
        "level": "0",
        "name": "Antipodean"
      },
      "geometry": {
        "type": "Point",
        "coordinates": [
          121.0190773,
          14.5541959
        ]
      },
      "id": "node/6373797009"
    },
    {
      "type": "Feature",
      "properties": {
        "@id": "node/6373797010",
        "addr:floor": "G/F",
        "addr:housenumber": "111",
        "addr:street": "Paseo de Roxas",
        "addr:street:corner": "Legaspi",
        "amenity": "cafe",
        "brand": "Tim Hortons",
        "brand:wikidata": "Q175106",
        "brand:wikipedia": "en:Tim Hortons",
        "level": "0",
        "name": "Tim Hortons"
      },
      "geometry": {
        "type": "Point",
        "coordinates": [
          121.0192794,
          14.5541149
        ]
      },
      "id": "node/6373797010"
    },
    {
      "type": "Feature",
      "properties": {
        "@id": "node/6393959933",
        "addr:city": "Pasay",
        "addr:floor": "G/F",
        "addr:housename": "Met Live Mall",
        "addr:street": "EDSA Extension",
        "addr:street:corner": "Diosdado Macapagal Boulevard",
        "amenity": "cafe",
        "brand:wikidata": "Q37158",
        "level": "0",
        "name": "Starbucks"
      },
      "geometry": {
        "type": "Point",
        "coordinates": [
          120.9884328,
          14.5367862
        ]
      },
      "id": "node/6393959933"
    },
    {
      "type": "Feature",
      "properties": {
        "@id": "node/6423437536",
        "addr:city": "Taguig",
        "addr:street": "Carlos P. Garcia Avenue",
        "amenity": "cafe",
        "brand:wikidata": "Q1141384",
        "name": "The Coffee Bean & Tea Leaf"
      },
      "geometry": {
        "type": "Point",
        "coordinates": [
          121.0553806,
          14.5411956
        ]
      },
      "id": "node/6423437536"
    },
    {
      "type": "Feature",
      "properties": {
        "@id": "node/6435920818",
        "addr:city": "Makati",
        "addr:housenumber": "56",
        "addr:postcode": "1201",
        "addr:street": "Jupiter",
        "amenity": "cafe",
        "cuisine": "italian;dessert",
        "name": "Happy Garden Cafe by Bizu",
        "phone": "(02) 261 0115"
      },
      "geometry": {
        "type": "Point",
        "coordinates": [
          121.0305431,
          14.5609549
        ]
      },
      "id": "node/6435920818"
    },
    {
      "type": "Feature",
      "properties": {
        "@id": "node/6444248488",
        "amenity": "cafe",
        "name": "Toby’s Estate Coffee Roaster"
      },
      "geometry": {
        "type": "Point",
        "coordinates": [
          121.0224018,
          14.5319073
        ]
      },
      "id": "node/6444248488"
    },
    {
      "type": "Feature",
      "properties": {
        "@id": "node/6470583602",
        "addr:city": "Pasay",
        "addr:floor": "G/F",
        "addr:housename": "Double Dragon Plaza",
        "addr:street": "EDSA Extension",
        "addr:street:corner": "Diosdado Macapagal Boulevard",
        "amenity": "cafe",
        "level": "0",
        "name": "J.Co"
      },
      "geometry": {
        "type": "Point",
        "coordinates": [
          120.9910527,
          14.5363718
        ]
      },
      "id": "node/6470583602"
    },
    {
      "type": "Feature",
      "properties": {
        "@id": "node/6523052938",
        "amenity": "cafe",
        "level": "0",
        "name": "Dunkin' Donuts"
      },
      "geometry": {
        "type": "Point",
        "coordinates": [
          121.0230651,
          14.5897315
        ]
      },
      "id": "node/6523052938"
    },
    {
      "type": "Feature",
      "properties": {
        "@id": "node/6531683097",
        "addr:city": "Makati",
        "addr:floor": "G/F",
        "addr:housename": "San Lorenzo Place",
        "addr:street": "EDSA",
        "addr:street:corner": "Don Chino Roces Avenue",
        "amenity": "cafe",
        "brand:wikidata": "Q175106",
        "cuisine": "coffee_shop",
        "level": "0",
        "name": "Tim Hortons"
      },
      "geometry": {
        "type": "Point",
        "coordinates": [
          121.0183312,
          14.5423637
        ]
      },
      "id": "node/6531683097"
    },
    {
      "type": "Feature",
      "properties": {
        "@id": "node/6532199794",
        "addr:city": "Makati",
        "addr:floor": "G/F",
        "addr:housename": "Ayala North Exchange",
        "addr:street": "Ayala Avenue",
        "addr:street:corner": "Salcedo",
        "amenity": "cafe",
        "brand:wikidata": "Q1141384",
        "cuisine": "coffee_shop",
        "level": "0",
        "name": "The Coffee Bean & Tea Leaf"
      },
      "geometry": {
        "type": "Point",
        "coordinates": [
          121.0158005,
          14.5597209
        ]
      },
      "id": "node/6532199794"
    },
    {
      "type": "Feature",
      "properties": {
        "@id": "node/6549740953",
        "addr:city": "Taguig",
        "addr:street": "Pedro Cayetano Boulevard",
        "amenity": "cafe",
        "name": "Coffee Project"
      },
      "geometry": {
        "type": "Point",
        "coordinates": [
          121.0597417,
          14.5300426
        ]
      },
      "id": "node/6549740953"
    },
    {
      "type": "Feature",
      "properties": {
        "@id": "node/6549744474",
        "addr:city": "Taguig",
        "addr:floor": "G/F",
        "addr:housename": "Vista Mall Taguig",
        "addr:street": "Pedro Cayetano Boulevard",
        "addr:street:corner": "Bagong Calzada",
        "amenity": "cafe",
        "level": "0",
        "name": "The Coffee Bean & Tea Leaf"
      },
      "geometry": {
        "type": "Point",
        "coordinates": [
          121.0722958,
          14.5320834
        ]
      },
      "id": "node/6549744474"
    },
    {
      "type": "Feature",
      "properties": {
        "@id": "node/6560111002",
        "addr:street": "Escriva Drive",
        "amenity": "cafe",
        "level": "0",
        "name": "Jang Dabang",
        "opening_hours": "11:00-22:00"
      },
      "geometry": {
        "type": "Point",
        "coordinates": [
          121.0607293,
          14.5789648
        ]
      },
      "id": "node/6560111002"
    },
    {
      "type": "Feature",
      "properties": {
        "@id": "node/6567421187",
        "amenity": "cafe",
        "name": "Seattle's Best Coffee"
      },
      "geometry": {
        "type": "Point",
        "coordinates": [
          121.0135473,
          14.5194014
        ]
      },
      "id": "node/6567421187"
    },
    {
      "type": "Feature",
      "properties": {
        "@id": "node/6581201146",
        "addr:street": "General Luna",
        "amenity": "cafe",
        "name": "Tilde Bakery and Kitchen",
        "shop": "bakery"
      },
      "geometry": {
        "type": "Point",
        "coordinates": [
          121.0333018,
          14.563323
        ]
      },
      "id": "node/6581201146"
    },
    {
      "type": "Feature",
      "properties": {
        "@id": "node/6583366543",
        "addr:city": "Makati",
        "addr:housename": "8760 Residences",
        "addr:housenumber": "8760",
        "addr:street": "Santol",
        "addr:street:corner": "Sampaloc",
        "alt_name": "Titatim's Cafe",
        "amenity": "cafe",
        "level": "0",
        "name": "Tita Tim's Cafe"
      },
      "geometry": {
        "type": "Point",
        "coordinates": [
          121.007971,
          14.5639584
        ]
      },
      "id": "node/6583366543"
    },
    {
      "type": "Feature",
      "properties": {
        "@id": "node/6602270460",
        "amenity": "cafe",
        "internet_access": "wlan",
        "level": "0",
        "name": "Staple and Perk Cafe and Bakery"
      },
      "geometry": {
        "type": "Point",
        "coordinates": [
          121.0229993,
          14.5336951
        ]
      },
      "id": "node/6602270460"
    },
    {
      "type": "Feature",
      "properties": {
        "@id": "node/6602367285",
        "amenity": "cafe",
        "name": "New Bistro Deli"
      },
      "geometry": {
        "type": "Point",
        "coordinates": [
          121.0207376,
          14.5372029
        ]
      },
      "id": "node/6602367285"
    },
    {
      "type": "Feature",
      "properties": {
        "@id": "node/6602691766",
        "addr:city": "Pasay",
        "addr:floor": "G/F",
        "addr:housename": "Y Tower",
        "addr:street": "Diosdado Macapagal Boulevard",
        "addr:street:corner": "Coral Way",
        "amenity": "cafe",
        "level": "0",
        "name": "The Alley"
      },
      "geometry": {
        "type": "Point",
        "coordinates": [
          120.9898986,
          14.5316439
        ]
      },
      "id": "node/6602691766"
    },
    {
      "type": "Feature",
      "properties": {
        "@id": "node/6616928431",
        "addr:city": "Taguig",
        "addr:floor": "G/F",
        "addr:housename": "W City Center",
        "addr:street": "7th Avenue",
        "addr:street:corner": "30th Street",
        "amenity": "cafe",
        "brand:wikidata": "Q64827025",
        "cuisine": "bubble_tea",
        "level": "0",
        "name": "Coco",
        "takeaway": "yes"
      },
      "geometry": {
        "type": "Point",
        "coordinates": [
          121.0497456,
          14.5531589
        ]
      },
      "id": "node/6616928431"
    },
    {
      "type": "Feature",
      "properties": {
        "@id": "node/6660358052",
        "addr:street": "Palanan 55 Sen. Gil J. Puyat Ave, Makati,",
        "amenity": "cafe",
        "name": "McDonald’s"
      },
      "geometry": {
        "type": "Point",
        "coordinates": [
          121.0044421,
          14.5564537
        ]
      },
      "id": "node/6660358052"
    },
    {
      "type": "Feature",
      "properties": {
        "@id": "node/6682293752",
        "addr:city": "Parañaque",
        "addr:country": "PH",
        "addr:housename": "Hop Inn Hotel Aseana City",
        "addr:postcode": "1700",
        "amenity": "cafe",
        "branch": "Hop Inn Hotel Aseana",
        "level": "0",
        "name": "Bless Amarê Café",
        "opening_hours": "07:00-22:00",
        "outdoor_seating": "no",
        "payment:cash": "yes",
        "payment:mastercard": "yes",
        "payment:visa": "yes",
        "smoking": "no",
        "wheelchair": "yes"
      },
      "geometry": {
        "type": "Point",
        "coordinates": [
          120.9880927,
          14.5279781
        ]
      },
      "id": "node/6682293752"
    },
    {
      "type": "Feature",
      "properties": {
        "@id": "node/6698552519",
        "amenity": "cafe",
        "internet_access": "wlan",
        "name": "SR 71",
        "outdoor_seating": "yes"
      },
      "geometry": {
        "type": "Point",
        "coordinates": [
          121.0667695,
          14.5740522
        ]
      },
      "id": "node/6698552519"
    },
    {
      "type": "Feature",
      "properties": {
        "@id": "node/6707563156",
        "addr:city": "Makati",
        "addr:floor": "G/F",
        "addr:housename": "Prince Plaza II",
        "addr:housenumber": "101",
        "addr:street": "Dela Rosa",
        "addr:street:corner": "Legazpi",
        "amenity": "cafe",
        "level": "0",
        "name": "Yi Fang",
        "outdoor_seating": "no",
        "takeaway": "yes"
      },
      "geometry": {
        "type": "Point",
        "coordinates": [
          121.0226452,
          14.5541518
        ]
      },
      "id": "node/6707563156"
    },
    {
      "type": "Feature",
      "properties": {
        "@id": "node/6767149434",
        "addr:city": "Mandaluyong",
        "addr:street": "Shaw Boulevard",
        "air_conditioning": "yes",
        "amenity": "cafe",
        "cuisine": "coffee_shop",
        "internet_access": "wlan",
        "internet_access:fee": "no",
        "name": "Coffee Project",
        "outdoor_seating": "yes"
      },
      "geometry": {
        "type": "Point",
        "coordinates": [
          121.0511948,
          14.5828729
        ]
      },
      "id": "node/6767149434"
    },
    {
      "type": "Feature",
      "properties": {
        "@id": "node/6824560198",
        "addr:city": "Makati",
        "addr:housename": "GF Eton Westend Square",
        "addr:postcode": "1203",
        "addr:street": "Malugay",
        "amenity": "cafe",
        "name": "Black Scoop Cafe"
      },
      "geometry": {
        "type": "Point",
        "coordinates": [
          121.0118414,
          14.5608754
        ]
      },
      "id": "node/6824560198"
    },
    {
      "type": "Feature",
      "properties": {
        "@id": "node/6846304005",
        "amenity": "cafe",
        "name": "Because Coffee",
        "opening_hours": "Mo-Su 08:00-18:00"
      },
      "geometry": {
        "type": "Point",
        "coordinates": [
          121.0474129,
          14.5513738
        ]
      },
      "id": "node/6846304005"
    },
    {
      "type": "Feature",
      "properties": {
        "@id": "node/6948839587",
        "amenity": "cafe",
        "name": "BardsFab"
      },
      "geometry": {
        "type": "Point",
        "coordinates": [
          121.04323,
          14.5261837
        ]
      },
      "id": "node/6948839587"
    },
    {
      "type": "Feature",
      "properties": {
        "@id": "node/7042780385",
        "amenity": "cafe",
        "name": "Elephant Grounds Coffee"
      },
      "geometry": {
        "type": "Point",
        "coordinates": [
          121.0462437,
          14.5517783
        ]
      },
      "id": "node/7042780385"
    },
    {
      "type": "Feature",
      "properties": {
        "@id": "node/7078132560",
        "addr:city": "Makati",
        "addr:housenumber": "28",
        "addr:street": "Jupiter",
        "addr:street:corner": "Astra",
        "amenity": "cafe",
        "name": "Maitre Chocolatier"
      },
      "geometry": {
        "type": "Point",
        "coordinates": [
          121.0330329,
          14.5586741
        ]
      },
      "id": "node/7078132560"
    },
    {
      "type": "Feature",
      "properties": {
        "@id": "node/7096327351",
        "amenity": "cafe",
        "name": "Cafe Bhon"
      },
      "geometry": {
        "type": "Point",
        "coordinates": [
          121.0113198,
          14.5456868
        ]
      },
      "id": "node/7096327351"
    },
    {
      "type": "Feature",
      "properties": {
        "@id": "node/7120042203",
        "addr:housenumber": "2233",
        "addr:place": "Bangkal",
        "addr:street": "Chino Roces Ave.",
        "amenity": "cafe",
        "name": "New Bistro Deli"
      },
      "geometry": {
        "type": "Point",
        "coordinates": [
          121.0157179,
          14.5464534
        ]
      },
      "id": "node/7120042203"
    },
    {
      "type": "Feature",
      "properties": {
        "@id": "node/7158050042",
        "air_conditioning": "yes",
        "amenity": "cafe",
        "brand": "Starbucks",
        "brand:wikidata": "Q37158",
        "brand:wikipedia": "en:Starbucks",
        "cuisine": "coffee_shop",
        "name": "Starbucks",
        "official_name": "Starbucks Coffee",
        "takeaway": "yes"
      },
      "geometry": {
        "type": "Point",
        "coordinates": [
          120.9890842,
          14.5230331
        ]
      },
      "id": "node/7158050042"
    },
    {
      "type": "Feature",
      "properties": {
        "@id": "node/7165368127",
        "amenity": "cafe",
        "name": "Happy Cup"
      },
      "geometry": {
        "type": "Point",
        "coordinates": [
          121.0782896,
          14.5732644
        ]
      },
      "id": "node/7165368127"
    },
    {
      "type": "Feature",
      "properties": {
        "@id": "node/7165564555",
        "amenity": "cafe",
        "name": "Elephantea"
      },
      "geometry": {
        "type": "Point",
        "coordinates": [
          121.0392642,
          14.5696879
        ]
      },
      "id": "node/7165564555"
    },
    {
      "type": "Feature",
      "properties": {
        "@id": "node/7328205305",
        "addr:city": "Pasig",
        "addr:housenumber": "6",
        "addr:postcode": "1603",
        "addr:street": "San Francisco",
        "amenity": "cafe",
        "cuisine": "coffee_shop",
        "internet_access": "yes",
        "internet_access:fee": "no",
        "name": "Arts and Beans",
        "outdoor_seating": "yes"
      },
      "geometry": {
        "type": "Point",
        "coordinates": [
          121.0611853,
          14.5719564
        ]
      },
      "id": "node/7328205305"
    },
    {
      "type": "Feature",
      "properties": {
        "@id": "node/7409890889",
        "amenity": "cafe",
        "cuisine": "dessert",
        "opening_hours": "Mo-Su 9:00-17:00"
      },
      "geometry": {
        "type": "Point",
        "coordinates": [
          121.0491858,
          14.5515529
        ]
      },
      "id": "node/7409890889"
    },
    {
      "type": "Feature",
      "properties": {
        "@id": "node/7550532985",
        "addr:street": "Pioneer",
        "amenity": "cafe",
        "name": "Maximus Athlete's Shop Cafe",
        "opening_hours": "Mo-Sa 11:00-21:00"
      },
      "geometry": {
        "type": "Point",
        "coordinates": [
          121.0528243,
          14.5711817
        ]
      },
      "id": "node/7550532985"
    },
    {
      "type": "Feature",
      "properties": {
        "@id": "node/7798186085",
        "addr:street": "Burgos Circle",
        "amenity": "cafe",
        "cuisine": "breakfast;coffee_shop;donut;sandwich",
        "internet_access": "wlan",
        "name": "Tim Horton’s",
        "opening_hours": "Mo-Su 09:00-18:00"
      },
      "geometry": {
        "type": "Point",
        "coordinates": [
          121.0440307,
          14.5523966
        ]
      },
      "id": "node/7798186085"
    },
    {
      "type": "Feature",
      "properties": {
        "@id": "node/7801237635",
        "amenity": "cafe",
        "name": "Macao Imperial Tea Philippines",
        "opening_hours:covid19": "9:00 AM to 7:00 PM, Monday to Sunday"
      },
      "geometry": {
        "type": "Point",
        "coordinates": [
          121.050136,
          14.5338985
        ]
      },
      "id": "node/7801237635"
    },
    {
      "type": "Feature",
      "properties": {
        "@id": "node/7801248349",
        "addr:city": "Taguig",
        "addr:postcode": "1634",
        "addr:street": "Upper McKinley Road",
        "amenity": "cafe",
        "brand": "Tim Hortons",
        "brand:wikidata": "Q175106",
        "brand:wikipedia": "en:Tim Hortons",
        "cuisine": "coffee_shop",
        "name": "Tim Hortons",
        "opening_hours": "24/7",
        "opening_hours:covid19": "7:00 AM to 9:00 PM, Monday to Sunday",
        "takeaway": "yes"
      },
      "geometry": {
        "type": "Point",
        "coordinates": [
          121.0502969,
          14.534558
        ]
      },
      "id": "node/7801248349"
    },
    {
      "type": "Feature",
      "properties": {
        "@id": "node/7801248353",
        "addr:city": "Taguig",
        "addr:housenumber": "The Venice Grand Canal Mall",
        "addr:street": "Upper McKinley Road",
        "amenity": "cafe",
        "brand": "Starbucks",
        "brand:wikidata": "Q37158",
        "brand:wikipedia": "en:Starbucks",
        "cuisine": "coffee_shop",
        "name": "Starbucks",
        "official_name": "Starbucks Coffee",
        "opening_hours:covid19": "8:00 AM to 8:00 PM, Monday to Sunday",
        "takeaway": "yes"
      },
      "geometry": {
        "type": "Point",
        "coordinates": [
          121.0509024,
          14.5344803
        ]
      },
      "id": "node/7801248353"
    },
    {
      "type": "Feature",
      "properties": {
        "@id": "node/7880412219",
        "amenity": "cafe",
        "cuisine": "bubble_tea",
        "name": "Happy Cup"
      },
      "geometry": {
        "type": "Point",
        "coordinates": [
          121.0124154,
          14.5814417
        ]
      },
      "id": "node/7880412219"
    },
    {
      "type": "Feature",
      "properties": {
        "@id": "node/7880494178",
        "amenity": "cafe",
        "name": "Mary Grace Cafe"
      },
      "geometry": {
        "type": "Point",
        "coordinates": [
          121.0316397,
          14.5629646
        ]
      },
      "id": "node/7880494178"
    },
    {
      "type": "Feature",
      "properties": {
        "@id": "node/7895964285",
        "addr:postcode": "1004",
        "addr:street": "Taft Avenue",
        "amenity": "cafe",
        "name": "Tim Hortons",
        "name:en": "Tim Hortons - R Sqauare Mall",
        "opening_hours": "Mo-Su 07:00-19:00"
      },
      "geometry": {
        "type": "Point",
        "coordinates": [
          120.9954142,
          14.5623467
        ]
      },
      "id": "node/7895964285"
    }
  ]
}